{
"type": "FeatureCollection",
"name": "hemodinamia",
"crs": { "type": "name", "properties": { "name": "urn:ogc:def:crs:OGC:1.3:CRS84" } },
"features": [
{ "type": "Feature", "properties": { "Clues": "DFSSA003973", "Institución": "Comisión Coordinadora de Institutos Nacionales de Salud y Hospitales de Alta Especialidad", "Sigla de la Institución": "CCINSHAE", "Entidad": "Ciudad de México", "Municipio": "Cuauhtémoc", "Siglas del tipo de unidad": "HESP", "Tipo de Unidad": "Hospital Especializado", "Unidad Médica": "Hospital General de México Dr. Eduardo Liceaga", "Cantidad de salas": 4, "Nivel de Atención": "Tercer Nivel", "Observaciones": "No aplica", "Latitud": 19.41387073, "Longitud": -99.15297951, "Direccion": "DR. BALMIS 148,  DOCTORES, CUAUHTEMOC, CIUDAD DE MEXICO, CP. 99999" }, "geometry": { "type": "Point", "coordinates": [ -99.15297951, 19.41387073 ] } },
{ "type": "Feature", "properties": { "Clues": "DFSSA003944", "Institución": "Comisión Coordinadora de Institutos Nacionales de Salud y Hospitales de Alta Especialidad", "Sigla de la Institución": "CCINSHAE", "Entidad": "Ciudad de México", "Municipio": "Gustavo A. Madero", "Siglas del tipo de unidad": "HESP", "Tipo de Unidad": "Hospital Especializado", "Unidad Médica": "Hospital Juárez de México", "Cantidad de salas": 1, "Nivel de Atención": "Tercer Nivel", "Observaciones": "No aplica", "Latitud": 19.482265, "Longitud": -99.136553, "Direccion": "CALLE INSTITUTO POLITECNICO NACIONAL 5160  ,  MAGDALENA DE LAS SALINAS, GUSTAVO A. MADERO, CIUDAD DE MEXICO, CP. 07760" }, "geometry": { "type": "Point", "coordinates": [ -99.136553, 19.482265 ] } },
{ "type": "Feature", "properties": { "Clues": "DFSSA004043", "Institución": "Comisión Coordinadora de Institutos Nacionales de Salud y Hospitales de Alta Especialidad", "Sigla de la Institución": "CCINSHAE", "Entidad": "Ciudad de México", "Municipio": "Tlalpan", "Siglas del tipo de unidad": "HESP", "Tipo de Unidad": "Hospital Especializado", "Unidad Médica": "Instituto Nacional de Cancerología", "Cantidad de salas": 1, "Nivel de Atención": "Tercer Nivel", "Observaciones": "No aplica", "Latitud": 19.28935472, "Longitud": -99.16051123, "Direccion": "AVENIDA SAN FERNANDO 22  , COLONIA SECCIÓN XVI, TLALPAN, CIUDAD DE MEXICO, CP. 14080" }, "geometry": { "type": "Point", "coordinates": [ -99.16051123, 19.28935472 ] } },
{ "type": "Feature", "properties": { "Clues": "DFSSA004031", "Institución": "Comisión Coordinadora de Institutos Nacionales de Salud y Hospitales de Alta Especialidad", "Sigla de la Institución": "CCINSHAE", "Entidad": "Ciudad de México", "Municipio": "Tlalpan", "Siglas del tipo de unidad": "HESP", "Tipo de Unidad": "Hospital Especializado", "Unidad Médica": "Instituto Nacional de Cardiología Ignacio Chávez", "Cantidad de salas": 4, "Nivel de Atención": "Tercer Nivel", "Observaciones": "No aplica", "Latitud": 19.291019, "Longitud": -99.153707, "Direccion": "CALLE JUAN BADIANO 1  , COLONIA SECCIÓN XVI, TLALPAN, CIUDAD DE MEXICO, CP. 14080" }, "geometry": { "type": "Point", "coordinates": [ -99.153707, 19.291019 ] } },
{ "type": "Feature", "properties": { "Clues": "DFSSA004055", "Institución": "Comisión Coordinadora de Institutos Nacionales de Salud y Hospitales de Alta Especialidad", "Sigla de la Institución": "CCINSHAE", "Entidad": "Ciudad de México", "Municipio": "Tlalpan", "Siglas del tipo de unidad": "HESP", "Tipo de Unidad": "Hospital Especializado", "Unidad Médica": "Instituto Nacional de Ciencias Médicas y Nutrición Salvador Zubirán", "Cantidad de salas": 2, "Nivel de Atención": "Tercer Nivel", "Observaciones": "No aplica", "Latitud": 19.2876757, "Longitud": -99.1571623, "Direccion": "AVENIDA VASCO DE QUIROGA 15  , COLONIA COLONIA BELISARIO DOMÍNGUEZ SECCIÓN XVI, TLALPAN, CIUDAD DE MEXICO, CP. 14080" }, "geometry": { "type": "Point", "coordinates": [ -99.1571623, 19.2876757 ] } },
{ "type": "Feature", "properties": { "Clues": "DFSSA004026", "Institución": "Comisión Coordinadora de Institutos Nacionales de Salud y Hospitales de Alta Especialidad", "Sigla de la Institución": "CCINSHAE", "Entidad": "Ciudad de México", "Municipio": "Tlalpan", "Siglas del tipo de unidad": "HESP", "Tipo de Unidad": "Hospital Especializado", "Unidad Médica": "Instituto Nacional de Enfermedades Respiratorias Ismael Cosío Villegas", "Cantidad de salas": 1, "Nivel de Atención": "Tercer Nivel", "Observaciones": "No aplica", "Latitud": 19.2924075, "Longitud": -99.1589973, "Direccion": "CALZADA TLALPAN 4502  , COLONIA SECCIÓN XVI, TLALPAN, CIUDAD DE MEXICO, CP. 14080" }, "geometry": { "type": "Point", "coordinates": [ -99.1589973, 19.2924075 ] } },
{ "type": "Feature", "properties": { "Clues": "DFSSA004060", "Institución": "Comisión Coordinadora de Institutos Nacionales de Salud y Hospitales de Alta Especialidad", "Sigla de la Institución": "CCINSHAE", "Entidad": "Ciudad de México", "Municipio": "Tlalpan", "Siglas del tipo de unidad": "HESP", "Tipo de Unidad": "Hospital Especializado", "Unidad Médica": "Instituto Nacional de Neurología y Neurocirugía Manuel Velasco Suárez", "Cantidad de salas": 2, "Nivel de Atención": "Tercer Nivel", "Observaciones": "No aplica", "Latitud": 19.29170532, "Longitud": -99.17533356, "Direccion": "CALLE INSURGENTES SUR 3877  , COLONIA LA FAMA, TLALPAN, CIUDAD DE MEXICO, CP. 14269" }, "geometry": { "type": "Point", "coordinates": [ -99.17533356, 19.29170532 ] } },
{ "type": "Feature", "properties": { "Clues": "DFSSA004014", "Institución": "Comisión Coordinadora de Institutos Nacionales de Salud y Hospitales de Alta Especialidad", "Sigla de la Institución": "CCINSHAE", "Entidad": "Ciudad de México", "Municipio": "Coyoacán", "Siglas del tipo de unidad": "HESP", "Tipo de Unidad": "Hospital Especializado", "Unidad Médica": "Instituto Nacional de Pediatría", "Cantidad de salas": 1, "Nivel de Atención": "Tercer Nivel", "Observaciones": "No aplica", "Latitud": 19.30675801, "Longitud": -99.18534496, "Direccion": "AVENIDA INSURGENTES SUR 3700 LETRA C  , COLONIA INSURGENTES CUICUILCO, COYOACAN, CIUDAD DE MEXICO, CP. 04530" }, "geometry": { "type": "Point", "coordinates": [ -99.18534496, 19.30675801 ] } },
{ "type": "Feature", "properties": { "Clues": "MCSME000921", "Institución": "Servicios Estatales de Salud", "Sigla de la Institución": "SESA", "Entidad": "Estado de México", "Municipio": "Metepec", "Siglas del tipo de unidad": "HESP", "Tipo de Unidad": "Hospital Especializado", "Unidad Médica": "Centro Médico ISSEMyM \"Lic. Arturo Montiel Rojas\"", "Cantidad de salas": 1, "Nivel de Atención": "Tercer Nivel", "Observaciones": "No aplica", "Latitud": 19.285464, "Longitud": -99.585755, "Direccion": "CALLE BAJA VELOCIDAD CARRETERA MÉXICO-TOLUCA KM. 57.5 PASEO TOLLOCAN 1519, COLONIA SAN JERÓNIMO CHICAHUALCO, METEPEC, MEXICO, CP. 52140" }, "geometry": { "type": "Point", "coordinates": [ -99.585755, 19.285464 ] } },
{ "type": "Feature", "properties": { "Clues": "DFIST000312", "Institución": "Instituto de Seguridad y Servicios Sociales de los Trabajadores del Estado", "Sigla de la Institución": "ISSSTE", "Entidad": "Ciudad de México", "Municipio": "Benito Juárez", "Siglas del tipo de unidad": "CMN", "Tipo de Unidad": "Centro Médico Nacional", "Unidad Médica": "Centro Médico Nacional 20 de Noviembre", "Cantidad de salas": 3, "Nivel de Atención": "Tercer Nivel", "Observaciones": "Sólo 2 salas funcionales", "Latitud": 19.3727207, "Longitud": -99.1711628, "Direccion": "AVENIDA FÉLIX CUEVAS S/N, COLONIA DEL VALLE SUR, BENITO JUÁREZ, CIUDAD DE MÉXICO, CP. 3104" }, "geometry": { "type": "Point", "coordinates": [ -99.1711628, 19.3727207 ] } },
{ "type": "Feature", "properties": { "Clues": "CSIST000514", "Institución": "Instituto de Seguridad y Servicios Sociales de los Trabajadores del Estado", "Sigla de la Institución": "ISSSTE", "Entidad": "Chiapas", "Municipio": "Palenque", "Siglas del tipo de unidad": "CH", "Tipo de Unidad": "Clínica Hospital", "Unidad Médica": "Clínica Hospital Palenque", "Cantidad de salas": 1, "Nivel de Atención": "Segundo Nivel", "Observaciones": "Con sala funcional, pero sin personal", "Latitud": 17.53732428, "Longitud": -91.99212753, "Direccion": "CARRETERA PALENQUE- PAKAL-NÁ S/N, COLONIA PAKAL-NA, PALENQUE, CHIAPAS, CP. 29960" }, "geometry": { "type": "Point", "coordinates": [ -91.99212753, 17.53732428 ] } },
{ "type": "Feature", "properties": { "Clues": "HGIST000106", "Institución": "Instituto de Seguridad y Servicios Sociales de los Trabajadores del Estado", "Sigla de la Institución": "ISSSTE", "Entidad": "Hidalgo", "Municipio": "Pachuca de Soto", "Siglas del tipo de unidad": "HG", "Tipo de Unidad": "Hospital General", "Unidad Médica": "Hospital General Columba Rivera Osorio", "Cantidad de salas": 1, "Nivel de Atención": "Segundo Nivel", "Observaciones": "No aplica", "Latitud": 20.07326968, "Longitud": -98.776398, "Direccion": "CARRETERA MÉXICO PACHUCA KM. 86.5 S/N, COLONIA ISSSTE, PACHUCA DE SOTO, HIDALGO, CP. 42080" }, "geometry": { "type": "Point", "coordinates": [ -98.776398, 20.07326968 ] } },
{ "type": "Feature", "properties": { "Clues": "CSIST000251", "Institución": "Instituto de Seguridad y Servicios Sociales de los Trabajadores del Estado", "Sigla de la Institución": "ISSSTE", "Entidad": "Chiapas", "Municipio": "Tuxtla Gutiérrez", "Siglas del tipo de unidad": "HG", "Tipo de Unidad": "Hospital General", "Unidad Médica": "Hospital General Dr. Belisario Domínguez", "Cantidad de salas": 1, "Nivel de Atención": "Segundo Nivel", "Observaciones": "No aplica", "Latitud": 16.7484664, "Longitud": -93.07516655000001, "Direccion": "CALLE LIBRAMIENTO NORTE ORIENTE 49-A S/N, COLONIA ISSSTE, TUXTLA GUTIÉRREZ, CHIAPAS, CP. 29060" }, "geometry": { "type": "Point", "coordinates": [ -93.07516655, 16.7484664 ] } },
{ "type": "Feature", "properties": { "Clues": "DGIST000042", "Institución": "Instituto de Seguridad y Servicios Sociales de los Trabajadores del Estado", "Sigla de la Institución": "ISSSTE", "Entidad": "Durango", "Municipio": "Durango", "Siglas del tipo de unidad": "HG", "Tipo de Unidad": "Hospital General", "Unidad Médica": "Hospital General Dr. Santiago Ramon y Cajal", "Cantidad de salas": 1, "Nivel de Atención": "Segundo Nivel", "Observaciones": "No aplica", "Latitud": 24.029236, "Longitud": -104.6816835, "Direccion": "CALLE VELINO M. PREZA S/N, COLONIA SILVESTRE DORADOR, DURANGO, DURANGO, CP. 34070" }, "geometry": { "type": "Point", "coordinates": [ -104.6816835, 24.029236 ] } },
{ "type": "Feature", "properties": { "Clues": "BCIST000093", "Institución": "Instituto de Seguridad y Servicios Sociales de los Trabajadores del Estado", "Sigla de la Institución": "ISSSTE", "Entidad": "Baja California", "Municipio": "Tijuana", "Siglas del tipo de unidad": "HG", "Tipo de Unidad": "Hospital General", "Unidad Médica": "Hospital General Fray Junípero Serra", "Cantidad de salas": 1, "Nivel de Atención": "Segundo Nivel", "Observaciones": "No aplica", "Latitud": 32.508255, "Longitud": -116.984823, "Direccion": "AVENIDA LAS PALMAS S/N, FRACCIONAMIENTO LAS PALMAS, TIJUANA, BAJA CALIFORNIA, CP. 22440" }, "geometry": { "type": "Point", "coordinates": [ -116.984823, 32.508255 ] } },
{ "type": "Feature", "properties": { "Clues": "BSIST000330", "Institución": "Instituto de Seguridad y Servicios Sociales de los Trabajadores del Estado", "Sigla de la Institución": "ISSSTE", "Entidad": "Baja California Sur", "Municipio": "La Paz", "Siglas del tipo de unidad": "HG", "Tipo de Unidad": "Hospital General", "Unidad Médica": "Hospital General La Paz", "Cantidad de salas": 1, "Nivel de Atención": "Segundo Nivel", "Observaciones": "No aplica", "Latitud": 24.138213, "Longitud": -110.341179, "Direccion": "CALLE MAR CARIBE S/N, COLONIA EL CONCHALITO, LA PAZ, BAJA CALIFORNIA SUR, CP. 23090" }, "geometry": { "type": "Point", "coordinates": [ -110.341179, 24.138213 ] } },
{ "type": "Feature", "properties": { "Clues": "CHIST000030", "Institución": "Instituto de Seguridad y Servicios Sociales de los Trabajadores del Estado", "Sigla de la Institución": "ISSSTE", "Entidad": "Chihuahua", "Municipio": "Chihuahua", "Siglas del tipo de unidad": "HG", "Tipo de Unidad": "Hospital General", "Unidad Médica": "Hospital General Presidente Lázaro Cárdenas", "Cantidad de salas": 1, "Nivel de Atención": "Segundo Nivel", "Observaciones": "No aplica", "Latitud": 28.6600143, "Longitud": -106.096394, "Direccion": "AVENIDA AMERICAS S/N, COLONIA ANGEL TRIAS , CHIHUAHUA, CHIHUAHUA, CP. 31203" }, "geometry": { "type": "Point", "coordinates": [ -106.096394, 28.6600143 ] } },
{ "type": "Feature", "properties": { "Clues": "QTIST000046", "Institución": "Instituto de Seguridad y Servicios Sociales de los Trabajadores del Estado", "Sigla de la Institución": "ISSSTE", "Entidad": "Querétaro", "Municipio": "Querétaro", "Siglas del tipo de unidad": "HG", "Tipo de Unidad": "Hospital General", "Unidad Médica": "Hospital General Querétaro", "Cantidad de salas": 1, "Nivel de Atención": "Segundo Nivel", "Observaciones": "La Pantalla del Angiógrafo se Encuentra dañada", "Latitud": 20.5931, "Longitud": -100.407, "Direccion": "AVENIDA TECNOLÓGICO S/N, COLONIA CENTRO, QUERÉTARO, QUERÉTARO, CP. 76000" }, "geometry": { "type": "Point", "coordinates": [ -100.407, 20.5931 ] } },
{ "type": "Feature", "properties": { "Clues": "CLIST000333", "Institución": "Instituto de Seguridad y Servicios Sociales de los Trabajadores del Estado", "Sigla de la Institución": "ISSSTE", "Entidad": "Coahuila", "Municipio": "Saltillo", "Siglas del tipo de unidad": "HG", "Tipo de Unidad": "Hospital General", "Unidad Médica": "Hospital General Saltillo", "Cantidad de salas": 1, "Nivel de Atención": "Segundo Nivel", "Observaciones": "No aplica", "Latitud": 25.41055, "Longitud": -100.95964, "Direccion": "BOULEVARD CARLOS ABEDROP S/N, COLONIA CENTRO METROPOLITANO, SALTILLO, COAHUILA, CP. 25022" }, "geometry": { "type": "Point", "coordinates": [ -100.95964, 25.41055 ] } },
{ "type": "Feature", "properties": { "Clues": "SPIST000113", "Institución": "Instituto de Seguridad y Servicios Sociales de los Trabajadores del Estado", "Sigla de la Institución": "ISSSTE", "Entidad": "San Luis Potosí", "Municipio": "San Luis Potosí", "Siglas del tipo de unidad": "HG", "Tipo de Unidad": "Hospital General", "Unidad Médica": "Hospital General San Luis Potosí", "Cantidad de salas": 1, "Nivel de Atención": "Segundo Nivel", "Observaciones": "No aplica", "Latitud": 22.14041736, "Longitud": -100.9698838, "Direccion": "CALLE CARLOS DIEZ GUTIÉRREZ S/N, COLONIA JULIAN CARRILLO, SAN LUIS POTOSÍ, SAN LUIS POTOSÍ, CP. 78340" }, "geometry": { "type": "Point", "coordinates": [ -100.9698838, 22.14041736 ] } },
{ "type": "Feature", "properties": { "Clues": "DFIST000534", "Institución": "Instituto de Seguridad y Servicios Sociales de los Trabajadores del Estado", "Sigla de la Institución": "ISSSTE", "Entidad": "Ciudad de México", "Municipio": "Miguel Hidalgo", "Siglas del tipo de unidad": "HG", "Tipo de Unidad": "Hospital General", "Unidad Médica": "Hospital General Tacuba", "Cantidad de salas": 1, "Nivel de Atención": "Segundo Nivel", "Observaciones": "No aplica", "Latitud": 19.4537917, "Longitud": -99.1909503, "Direccion": "CALLE LAGO ONTARIO S/N, COLONIA TACUBA, MIGUEL HIDALGO, CIUDAD DE MÉXICO, CP. 11410" }, "geometry": { "type": "Point", "coordinates": [ -99.1909503, 19.4537917 ] } },
{ "type": "Feature", "properties": { "Clues": "GRIST000520", "Institución": "Instituto de Seguridad y Servicios Sociales de los Trabajadores del Estado", "Sigla de la Institución": "ISSSTE", "Entidad": "Guerrero", "Municipio": "Acapulco de Juárez", "Siglas del tipo de unidad": "HR", "Tipo de Unidad": "Hospital Regional", "Unidad Médica": "Hospital Regional Acapulco", "Cantidad de salas": 1, "Nivel de Atención": "Tercer Nivel", "Observaciones": "Con sala funcional, pero sin personal", "Latitud": 16.85263723, "Longitud": -99.85191629000001, "Direccion": "AVENIDA COMANDANTE BOUGANVILLE S/N, FRACCIONAMIENTO COSTA AZUL, ACAPULCO DE JUÁREZ, GUERRERO, CP. 39850" }, "geometry": { "type": "Point", "coordinates": [ -99.85191629, 16.85263723 ] } },
{ "type": "Feature", "properties": { "Clues": "MCIST000425", "Institución": "Instituto de Seguridad y Servicios Sociales de los Trabajadores del Estado", "Sigla de la Institución": "ISSSTE", "Entidad": "Estado de México", "Municipio": "Tultitlán", "Siglas del tipo de unidad": "HR", "Tipo de Unidad": "Hospital Regional", "Unidad Médica": "Hospital Regional Bicentenario de la Independencia", "Cantidad de salas": 1, "Nivel de Atención": "Tercer Nivel", "Observaciones": "Funcionalidad Intermitente por Fallas en el Aire Acondicionado", "Latitud": 19.6290116, "Longitud": -99.163345, "Direccion": "CALLE CIRUELOS S/N, ZONA INDUSTRIAL LÁZARO CÁRDENAS, TULTITLÁN, MÉXICO, CP. 54916" }, "geometry": { "type": "Point", "coordinates": [ -99.163345, 19.6290116 ] } },
{ "type": "Feature", "properties": { "Clues": "MSIST000293", "Institución": "Instituto de Seguridad y Servicios Sociales de los Trabajadores del Estado", "Sigla de la Institución": "ISSSTE", "Entidad": "Morelos", "Municipio": "Emiliano Zapata", "Siglas del tipo de unidad": "HR", "Tipo de Unidad": "Hospital Regional", "Unidad Médica": "Hospital Regional Centenario de la Revolución Mexicana", "Cantidad de salas": 1, "Nivel de Atención": "Tercer Nivel", "Observaciones": "No aplica", "Latitud": 18.8476548, "Longitud": -99.1975378, "Direccion": "AVENIDA UNIVERSIDAD S/N, COLONIA PALO ESCRITO, EMILIANO ZAPATA, MORELOS, CP. 62760" }, "geometry": { "type": "Point", "coordinates": [ -99.1975378, 18.8476548 ] } },
{ "type": "Feature", "properties": { "Clues": "YNIST000030", "Institución": "Instituto de Seguridad y Servicios Sociales de los Trabajadores del Estado", "Sigla de la Institución": "ISSSTE", "Entidad": "Yucatán", "Municipio": "Mérida", "Siglas del tipo de unidad": "HR", "Tipo de Unidad": "Hospital Regional", "Unidad Médica": "Hospital Regional de Mérida Elvia Carrillo Puerto", "Cantidad de salas": 1, "Nivel de Atención": "Tercer Nivel", "Observaciones": "No aplica", "Latitud": 20.9956642, "Longitud": -89.6401182, "Direccion": "CALLE 7 S/N, COLONIA PENSIONES, MÉRIDA, YUCATÁN, CP. 97219" }, "geometry": { "type": "Point", "coordinates": [ -89.6401182, 20.9956642 ] } },
{ "type": "Feature", "properties": { "Clues": "SLIST000085", "Institución": "Instituto de Seguridad y Servicios Sociales de los Trabajadores del Estado", "Sigla de la Institución": "ISSSTE", "Entidad": "Sinaloa", "Municipio": "Culiacán", "Siglas del tipo de unidad": "HR", "Tipo de Unidad": "Hospital Regional", "Unidad Médica": "Hospital Regional Dr. Manuel Cárdenas de la Vega", "Cantidad de salas": 1, "Nivel de Atención": "Tercer Nivel", "Observaciones": "No aplica", "Latitud": 24.7959292, "Longitud": -107.3764675, "Direccion": "CALZADA HEROICO COLEGIO MILITAR SUR S/N, COLONIA COL. 5 DE MAYO, CULIACÁN, SINALOA, CP. 80090" }, "geometry": { "type": "Point", "coordinates": [ -107.3764675, 24.7959292 ] } },
{ "type": "Feature", "properties": { "Clues": "DFIST000160", "Institución": "Instituto de Seguridad y Servicios Sociales de los Trabajadores del Estado", "Sigla de la Institución": "ISSSTE", "Entidad": "Ciudad de México", "Municipio": "Iztapalapa", "Siglas del tipo de unidad": "HR", "Tipo de Unidad": "Hospital Regional", "Unidad Médica": "Hospital Regional Gral. Ignacio Zaragoza", "Cantidad de salas": 2, "Nivel de Atención": "Tercer Nivel", "Observaciones": "No aplica", "Latitud": 19.3893346, "Longitud": -99.044786, "Direccion": "CALZADA GRAL. IGNACIO ZARAGOZA S/N, COLONIA EJÉRCITO CONSTITUCIONALISTA, IZTAPALAPA, CIUDAD DE MÉXICO, CP. 9220" }, "geometry": { "type": "Point", "coordinates": [ -99.044786, 19.3893346 ] } },
{ "type": "Feature", "properties": { "Clues": "GTIST000091", "Institución": "Instituto de Seguridad y Servicios Sociales de los Trabajadores del Estado", "Sigla de la Institución": "ISSSTE", "Entidad": "Guanajuato", "Municipio": "León", "Siglas del tipo de unidad": "HR", "Tipo de Unidad": "Hospital Regional", "Unidad Médica": "Hospital Regional León", "Cantidad de salas": 1, "Nivel de Atención": "Tercer Nivel", "Observaciones": "No aplica", "Latitud": 21.0983262, "Longitud": -101.6499623, "Direccion": "AVENIDA PRADERA S/N, COLONIA AZTECA, LEÓN, GUANAJUATO, CP. 37520" }, "geometry": { "type": "Point", "coordinates": [ -101.6499623, 21.0983262 ] } },
{ "type": "Feature", "properties": { "Clues": "DFIST000201", "Institución": "Instituto de Seguridad y Servicios Sociales de los Trabajadores del Estado", "Sigla de la Institución": "ISSSTE", "Entidad": "Ciudad de México", "Municipio": "Álvaro Obregón", "Siglas del tipo de unidad": "HR", "Tipo de Unidad": "Hospital Regional", "Unidad Médica": "Hospital Regional Lic. Adolfo López Mateos", "Cantidad de salas": 2, "Nivel de Atención": "Tercer Nivel", "Observaciones": "No aplica", "Latitud": 19.3587749, "Longitud": -99.1726649, "Direccion": "AVENIDA UNIVERSIDAD S/N, COLONIA FLORIDA, ÁLVARO OBREGÓN, CIUDAD DE MÉXICO, CP. 1030" }, "geometry": { "type": "Point", "coordinates": [ -99.1726649, 19.3587749 ] } },
{ "type": "Feature", "properties": { "Clues": "NLIST000105", "Institución": "Instituto de Seguridad y Servicios Sociales de los Trabajadores del Estado", "Sigla de la Institución": "ISSSTE", "Entidad": "Nuevo León", "Municipio": "Monterrey", "Siglas del tipo de unidad": "HR", "Tipo de Unidad": "Hospital Regional", "Unidad Médica": "Hospital Regional Monterrey", "Cantidad de salas": 2, "Nivel de Atención": "Tercer Nivel", "Observaciones": "No aplica", "Latitud": 25.7090897, "Longitud": -100.3593975, "Direccion": "CALLE ADOLFO LÓPEZ MATEOS S/N, COLONIA BUROCRATAS FEDERALES, MONTERREY, NUEVO LEÓN, CP. 64380" }, "geometry": { "type": "Point", "coordinates": [ -100.3593975, 25.7090897 ] } },
{ "type": "Feature", "properties": { "Clues": "MNIST000120", "Institución": "Instituto de Seguridad y Servicios Sociales de los Trabajadores del Estado", "Sigla de la Institución": "ISSSTE", "Entidad": "Michoacán", "Municipio": "Morelia", "Siglas del tipo de unidad": "HR", "Tipo de Unidad": "Hospital Regional", "Unidad Médica": "Hospital Regional Morelia", "Cantidad de salas": 1, "Nivel de Atención": "Segundo Nivel", "Observaciones": "Funcionalidad Intermitente", "Latitud": 19.73443813, "Longitud": -101.1044288, "Direccion": "CARRETERA MORELIA A CHARO KM 6 S/N, PUEBLO ATAPANEO, MORELIA, MICHOACÁN, CP. 58300" }, "geometry": { "type": "Point", "coordinates": [ -101.1044288, 19.73443813 ] } },
{ "type": "Feature", "properties": { "Clues": "OCIST000112", "Institución": "Instituto de Seguridad y Servicios Sociales de los Trabajadores del Estado", "Sigla de la Institución": "ISSSTE", "Entidad": "Oaxaca", "Municipio": "Oaxaca de Juárez", "Siglas del tipo de unidad": "HR", "Tipo de Unidad": "Hospital Regional", "Unidad Médica": "Hospital Regional Presidente Benito Juárez", "Cantidad de salas": 1, "Nivel de Atención": "Tercer Nivel", "Observaciones": "Con sala funcional, pero sin personal", "Latitud": 17.08421191, "Longitud": -96.72283264, "Direccion": "CALLE DR. GERARDO VARELA S/N, COLONIA CERRO DEL CRESTON, OAXACA DE JUÁREZ, OAXACA, CP. 68040" }, "geometry": { "type": "Point", "coordinates": [ -96.72283264, 17.08421191 ] } },
{ "type": "Feature", "properties": { "Clues": "DFIST000090", "Institución": "Instituto de Seguridad y Servicios Sociales de los Trabajadores del Estado", "Sigla de la Institución": "ISSSTE", "Entidad": "Ciudad de México", "Municipio": "Gustavo A. Madero", "Siglas del tipo de unidad": "HR", "Tipo de Unidad": "Hospital Regional", "Unidad Médica": "Hospital Regional Primero de Octubre", "Cantidad de salas": 2, "Nivel de Atención": "Tercer Nivel", "Observaciones": "No aplica", "Latitud": 19.486615, "Longitud": -99.1332453, "Direccion": "AVENIDA INSTITUTO POLITÉCNICO NACIONAL S/N, COLONIA MAGDALENA DE LAS SALINAS, GUSTAVO A. MADERO, CIUDAD DE MÉXICO, CP. 7760" }, "geometry": { "type": "Point", "coordinates": [ -99.1332453, 19.486615 ] } },
{ "type": "Feature", "properties": { "Clues": "PLIST000101", "Institución": "Instituto de Seguridad y Servicios Sociales de los Trabajadores del Estado", "Sigla de la Institución": "ISSSTE", "Entidad": "Puebla", "Municipio": "Puebla", "Siglas del tipo de unidad": "HR", "Tipo de Unidad": "Hospital Regional", "Unidad Médica": "Hospital Regional Puebla", "Cantidad de salas": 1, "Nivel de Atención": "Tercer Nivel", "Observaciones": "No aplica", "Latitud": 19.0206177, "Longitud": -98.198533, "Direccion": "BOULEVARD 14 SUR S/N, COLONIA JARDINES DE SAN MANUEL, PUEBLA, PUEBLA, CP. 72570" }, "geometry": { "type": "Point", "coordinates": [ -98.198533, 19.0206177 ] } },
{ "type": "Feature", "properties": { "Clues": "JCIST000955", "Institución": "Instituto de Seguridad y Servicios Sociales de los Trabajadores del Estado", "Sigla de la Institución": "ISSSTE", "Entidad": "Jalisco", "Municipio": "Tlajomulco de Zúñiga", "Siglas del tipo de unidad": "HR", "Tipo de Unidad": "Hospital Regional", "Unidad Médica": "Hospital Regional Tlajomulco", "Cantidad de salas": 1, "Nivel de Atención": "Tercer Nivel", "Observaciones": "No aplica", "Latitud": 20.46221905, "Longitud": -103.4344292, "Direccion": "CALLE CERRO DEL PATOMO S/N, COLONIA CENTRO, TLAJOMULCO DE ZÚÑIGA, JALISCO, CP. 45640" }, "geometry": { "type": "Point", "coordinates": [ -103.4344292, 20.46221905 ] } },
{ "type": "Feature", "properties": { "Clues": "CLIST000350", "Institución": "Instituto de Seguridad y Servicios Sociales de los Trabajadores del Estado", "Sigla de la Institución": "ISSSTE", "Entidad": "Coahuila", "Municipio": "Torreón", "Siglas del tipo de unidad": "HR", "Tipo de Unidad": "Hospital Regional", "Unidad Médica": "Hospital Regional Torreón", "Cantidad de salas": 1, "Nivel de Atención": "Tercer Nivel", "Observaciones": "No aplica", "Latitud": 25.53030966, "Longitud": -103.3238249, "Direccion": "CALLE ROTARISMO INTERNACIONAL S/N, EJIDO EL ÁGUILA, TORREÓN, COAHUILA, CP. 27400" }, "geometry": { "type": "Point", "coordinates": [ -103.3238249, 25.53030966 ] } },
{ "type": "Feature", "properties": { "Clues": "PENDIENTE", "Institución": "Instituto de Seguridad y Servicios Sociales de los Trabajadores del Estado", "Sigla de la Institución": "ISSSTE", "Entidad": "Jalisco", "Municipio": "Zapopan", "Siglas del tipo de unidad": "HR", "Tipo de Unidad": "Hospital Regional", "Unidad Médica": "Hospital Regional Valentín Gómez Farías", "Cantidad de salas": 1, "Nivel de Atención": "Tercer Nivel", "Observaciones": "No aplica", "Latitud": 20.7186359, "Longitud": -103.3873164, "Direccion": "AVENIDA SOLEDAD OROZCO 203, COLONIA EL CAPULLO, ZAPOPAN, JALISCO, CP. 45100" }, "geometry": { "type": "Point", "coordinates": [ -103.3873164, 20.7186359 ] } },
{ "type": "Feature", "properties": { "Clues": "VZIST000301", "Institución": "Instituto de Seguridad y Servicios Sociales de los Trabajadores del Estado", "Sigla de la Institución": "ISSSTE", "Entidad": "Veracruz", "Municipio": "Veracruz", "Siglas del tipo de unidad": "HR", "Tipo de Unidad": "Hospital Regional", "Unidad Médica": "Hospital Regional Veracruz", "Cantidad de salas": 1, "Nivel de Atención": "Tercer Nivel", "Observaciones": "No aplica", "Latitud": 19.17205856, "Longitud": -96.1350174, "Direccion": "AVENIDA DÍAZ MIRÓN ESQUINA SAYULA S/N, FRACCIONAMIENTO MODERNO, VERACRUZ, VERACRUZ, CP. 91918" }, "geometry": { "type": "Point", "coordinates": [ -96.1350174, 19.17205856 ] } },
{ "type": "Feature", "properties": { "Clues": "DFIMS000575", "Institución": "Instituto Mexicano del Seguro Social", "Sigla de la Institución": "IMSS", "Entidad": "Ciudad de México", "Municipio": "Cuauhtémoc", "Siglas del tipo de unidad": "HCARD", "Tipo de Unidad": "Hospital de Cardiología", "Unidad Médica": "Hospital de Cardiología del \"CMN Siglo XXI\"", "Cantidad de salas": 4, "Nivel de Atención": "Tercer Nivel", "Observaciones": "No aplica", "Latitud": 19.40962963, "Longitud": -99.15164972, "Direccion": "AVENIDA CUAUHTÉMOC 330, COLONIA DOCTORES, CUAUHTEMOC, CIUDAD DE MEXICO, CP. 06720" }, "geometry": { "type": "Point", "coordinates": [ -99.15164972, 19.40962963 ] } },
{ "type": "Feature", "properties": { "Clues": "NLIMS000315", "Institución": "Instituto Mexicano del Seguro Social", "Sigla de la Institución": "IMSS", "Entidad": "Nuevo León", "Municipio": "Monterrey", "Siglas del tipo de unidad": "HCARD", "Tipo de Unidad": "Hospital de Cardiología", "Unidad Médica": "Hospital de Cardiología No. 34 \"Monterrey\"", "Cantidad de salas": 1, "Nivel de Atención": "Tercer Nivel", "Observaciones": "No aplica", "Latitud": 25.72858173, "Longitud": -100.3693983, "Direccion": "AVENIDA ABRAHAM LINCOLN SIN NUMERO, COLONIA VALLE VERDE 2DO SECTOR, MONTERREY, NUEVO LEON, CP. 64360" }, "geometry": { "type": "Point", "coordinates": [ -100.3693983, 25.72858173 ] } },
{ "type": "Feature", "properties": { "Clues": "DFIMS000020", "Institución": "Instituto Mexicano del Seguro Social", "Sigla de la Institución": "IMSS", "Entidad": "Ciudad de México", "Municipio": "Azcapotzalco", "Siglas del tipo de unidad": "HES", "Tipo de Unidad": "Hospital de Especialidades", "Unidad Médica": "Hospital de Especialidades del \"CMN La Raza\"", "Cantidad de salas": 3, "Nivel de Atención": "Tercer Nivel", "Observaciones": "No aplica", "Latitud": 19.4662, "Longitud": -99.1442, "Direccion": "CALLE SERIS SIN NUMERO, COLONIA LA RAZA, AZCAPOTZALCO, CIUDAD DE MEXICO, CP. 02990" }, "geometry": { "type": "Point", "coordinates": [ -99.1442, 19.4662 ] } },
{ "type": "Feature", "properties": { "Clues": "YNIMS000071", "Institución": "Instituto Mexicano del Seguro Social", "Sigla de la Institución": "IMSS", "Entidad": "Yucatán", "Municipio": "Mérida", "Siglas del tipo de unidad": "HES", "Tipo de Unidad": "Hospital de Especialidades", "Unidad Médica": "Hospital de Especialidades del \"CMN Mérida\"", "Cantidad de salas": 1, "Nivel de Atención": "Tercer Nivel", "Observaciones": "No aplica", "Latitud": 19.1994041, "Longitud": -96.1559521, "Direccion": "CALLE 41 X 34  EX TERRENOS EL FÉNIX 439, COLONIA INDUSTRIAL, MERIDA, YUCATAN, CP. 97150" }, "geometry": { "type": "Point", "coordinates": [ -96.1559521, 19.1994041 ] } },
{ "type": "Feature", "properties": { "Clues": "JCIMS000301", "Institución": "Instituto Mexicano del Seguro Social", "Sigla de la Institución": "IMSS", "Entidad": "Jalisco", "Municipio": "Guadalajara", "Siglas del tipo de unidad": "HES", "Tipo de Unidad": "Hospital de Especialidades", "Unidad Médica": "Hospital de Especialidades del \"CMN Occidente\"", "Cantidad de salas": 1, "Nivel de Atención": "Tercer Nivel", "Observaciones": "No aplica", "Latitud": 20.6861939, "Longitud": -103.3273887, "Direccion": "CALLE BELISARIO DOMÍNGUEZ 1000, FRACCIONAMIENTO INDEPENDENCIA ORIENTE, GUADALAJARA, JALISCO, CP. 44340" }, "geometry": { "type": "Point", "coordinates": [ -103.3273887, 20.6861939 ] } },
{ "type": "Feature", "properties": { "Clues": "PLIMS000200", "Institución": "Instituto Mexicano del Seguro Social", "Sigla de la Institución": "IMSS", "Entidad": "Puebla", "Municipio": "Puebla", "Siglas del tipo de unidad": "HES", "Tipo de Unidad": "Hospital de Especialidades", "Unidad Médica": "Hospital de Especialidades del \"CMN Puebla\"", "Cantidad de salas": 1, "Nivel de Atención": "Tercer Nivel", "Observaciones": "No aplica", "Latitud": 19.0512472, "Longitud": -98.1923175, "Direccion": "CALLE 2 NORTE 2004, COLONIA CENTRO, PUEBLA, PUEBLA, CP. 72000" }, "geometry": { "type": "Point", "coordinates": [ -98.1923175, 19.0512472 ] } },
{ "type": "Feature", "properties": { "Clues": "GTIMS000226", "Institución": "Instituto Mexicano del Seguro Social", "Sigla de la Institución": "IMSS", "Entidad": "Guanajuato", "Municipio": "León", "Siglas del tipo de unidad": "HES", "Tipo de Unidad": "Hospital de Especialidades", "Unidad Médica": "Hospital de Especialidades No. 1 del \"CMN del Bajío\"", "Cantidad de salas": 1, "Nivel de Atención": "Tercer Nivel", "Observaciones": "No aplica", "Latitud": 21.1398081, "Longitud": -101.6870355, "Direccion": "BOULEVARD ADOLFO LÓPEZ MATEOS SIN NUMERO, COLONIA LOS PARAÍSOS, LEON, GUANAJUATO, CP. 37328" }, "geometry": { "type": "Point", "coordinates": [ -101.6870355, 21.1398081 ] } },
{ "type": "Feature", "properties": { "Clues": "VZIMS001112", "Institución": "Instituto Mexicano del Seguro Social", "Sigla de la Institución": "IMSS", "Entidad": "Veracruz", "Municipio": "Veracruz", "Siglas del tipo de unidad": "HES", "Tipo de Unidad": "Hospital de Especialidades", "Unidad Médica": "Hospital de Especialidades No. 14 \"Veracruz\"", "Cantidad de salas": 1, "Nivel de Atención": "Tercer Nivel", "Observaciones": "No aplica", "Latitud": 19.1994, "Longitud": -96.15595, "Direccion": "AVENIDA CUAHUTEMOC SIN NUMERO, COLONIA FORMANDO HOGAR, VERACRUZ, VERACRUZ DE IGNACIO DE LA LLAVE, CP. 91810" }, "geometry": { "type": "Point", "coordinates": [ -96.15595, 19.1994 ] } },
{ "type": "Feature", "properties": { "Clues": "SRIMS000150", "Institución": "Instituto Mexicano del Seguro Social", "Sigla de la Institución": "IMSS", "Entidad": "Sonora", "Municipio": "Cajame", "Siglas del tipo de unidad": "HES", "Tipo de Unidad": "Hospital de Especialidades", "Unidad Médica": "Hospital de Especialidades No. 2 \"CMN Obregón\"", "Cantidad de salas": 1, "Nivel de Atención": "Tercer Nivel", "Observaciones": "No aplica", "Latitud": 27.49627105, "Longitud": -109.9632225, "Direccion": "CALLE DEL SEGURO SIN NUMERO, UNIDAD HABITACIONAL MULTIFAMILIARES IMSS, CAJEME, SONORA, CP. 85120" }, "geometry": { "type": "Point", "coordinates": [ -109.9632225, 27.49627105 ] } },
{ "type": "Feature", "properties": { "Clues": "NLIMS000303", "Institución": "Instituto Mexicano del Seguro Social", "Sigla de la Institución": "IMSS", "Entidad": "Nuevo León", "Municipio": "Monterrey", "Siglas del tipo de unidad": "HES", "Tipo de Unidad": "Hospital de Especialidades", "Unidad Médica": "Hospital de Especialidades No. 25 \"Monterrey\"", "Cantidad de salas": 1, "Nivel de Atención": "Tercer Nivel", "Observaciones": "No aplica", "Latitud": 25.71611475, "Longitud": -100.3504889, "Direccion": "EJE VIAL METROPOLITANO 36 SIN NUMERO, COLONIA VALLE DE LAS MITRAS, MONTERREY, NUEVO LEON, CP. 64300" }, "geometry": { "type": "Point", "coordinates": [ -100.3504889, 25.71611475 ] } },
{ "type": "Feature", "properties": { "Clues": "CLIMS000490", "Institución": "Instituto Mexicano del Seguro Social", "Sigla de la Institución": "IMSS", "Entidad": "Coahuila", "Municipio": "Torreón", "Siglas del tipo de unidad": "HES", "Tipo de Unidad": "Hospital de Especialidades", "Unidad Médica": "Hospital de Especialidades No. 71 \"Torreón\"", "Cantidad de salas": 1, "Nivel de Atención": "Tercer Nivel", "Observaciones": "No aplica", "Latitud": 25.53533776, "Longitud": -103.4200032, "Direccion": "BOULEVARD REVOLUCIÓN SIN NUMERO, COLONIA TORREÓN JARDÍN, TORREON, COAHUILA DE ZARAGOZA, CP. 27200" }, "geometry": { "type": "Point", "coordinates": [ -103.4200032, 25.53533776 ] } },
{ "type": "Feature", "properties": { "Clues": "OCIMS000136", "Institución": "Instituto Mexicano del Seguro Social", "Sigla de la Institución": "IMSS", "Entidad": "Oaxaca", "Municipio": "Oaxaca de Juárez", "Siglas del tipo de unidad": "HGZ-UMAA", "Tipo de Unidad": "Hospital General de Zona - Unidad Médica de Atención Ambulatoria", "Unidad Médica": "Hospital General de Zona - Unidad Médica de Atención Ambulatoria No. 1 \"Oaxaca\"", "Cantidad de salas": 1, "Nivel de Atención": "Segundo Nivel", "Observaciones": "No aplica", "Latitud": 17.07228, "Longitud": -96.72121, "Direccion": "CALZADA HEROES DE CHAPULTEPEC 621, COLONIA OAXACA CENTRO, OAXACA DE JUAREZ, OAXACA, CP. 68000" }, "geometry": { "type": "Point", "coordinates": [ -96.72121, 17.07228 ] } },
{ "type": "Feature", "properties": { "Clues": "BSIMS000113", "Institución": "Instituto Mexicano del Seguro Social", "Sigla de la Institución": "IMSS", "Entidad": "Baja California Sur", "Municipio": "La Paz", "Siglas del tipo de unidad": "HGZMF", "Tipo de Unidad": "Hospital General de Zona con Medicina Familiar", "Unidad Médica": "Hospital General de Zona con Medicina Familiar No. 1 \"La Paz\"", "Cantidad de salas": 1, "Nivel de Atención": "Segundo Nivel", "Observaciones": "No aplica", "Latitud": 24.14504577, "Longitud": -110.3190222, "Direccion": "BOULEVARD 5 DE FEBRERO SIN NUMERO, COLONIA PUEBLO NUEVO, LA PAZ, BAJA CALIFORNIA SUR, CP. 23060" }, "geometry": { "type": "Point", "coordinates": [ -110.3190222, 24.14504577 ] } },
{ "type": "Feature", "properties": { "Clues": "HGIMS000082", "Institución": "Instituto Mexicano del Seguro Social", "Sigla de la Institución": "IMSS", "Entidad": "Hidalgo", "Municipio": "Pachuca de Soto", "Siglas del tipo de unidad": "HGZMF", "Tipo de Unidad": "Hospital General de Zona con Medicina Familiar", "Unidad Médica": "Hospital General de Zona con Medicina Familiar No. 1 \"Pachuca\"", "Cantidad de salas": 1, "Nivel de Atención": "Segundo Nivel", "Observaciones": "No aplica", "Latitud": 20.11492845, "Longitud": -98.72354855, "Direccion": "AVENIDA FRANCISCO I MADERO 407, COLONIA NUEVA FRANCISCO I MADERO, PACHUCA DE SOTO, HIDALGO, CP. 42070" }, "geometry": { "type": "Point", "coordinates": [ -98.72354855, 20.11492845 ] } },
{ "type": "Feature", "properties": { "Clues": "GTIMS000185", "Institución": "Instituto Mexicano del Seguro Social", "Sigla de la Institución": "IMSS", "Entidad": "Guanajuato", "Municipio": "Irapuato", "Siglas del tipo de unidad": "HGZMF", "Tipo de Unidad": "Hospital General de Zona con Medicina Familiar", "Unidad Médica": "Hospital General de Zona con Medicina Familiar No. 2 \"Irapuato\"", "Cantidad de salas": 1, "Nivel de Atención": "Segundo Nivel", "Observaciones": "No aplica", "Latitud": 20.6679, "Longitud": -101.3758, "Direccion": "AVENIDA DE LA REFORMA 307, COLONIA GÁMEZ, IRAPUATO, GUANAJUATO, CP. 36650" }, "geometry": { "type": "Point", "coordinates": [ -101.3758, 20.6679 ] } },
{ "type": "Feature", "properties": { "Clues": "SLIMS000341", "Institución": "Instituto Mexicano del Seguro Social", "Sigla de la Institución": "IMSS", "Entidad": "Sinaloa", "Municipio": "Mazatlán", "Siglas del tipo de unidad": "HGZMF", "Tipo de Unidad": "Hospital General de Zona con Medicina Familiar", "Unidad Médica": "Hospital General de Zona con Medicina Familiar No. 3 \"Mazatlán\"", "Cantidad de salas": 1, "Nivel de Atención": "Segundo Nivel", "Observaciones": "No aplica", "Latitud": 23.23339, "Longitud": -106.42381, "Direccion": "AVENIDA EJÉRCITO MEXICANO SIN NUMERO, COLONIA ADOLFO LÓPEZ MATEOS, MAZATLAN, SINALOA, CP. 82149" }, "geometry": { "type": "Point", "coordinates": [ -106.42381, 23.23339 ] } },
{ "type": "Feature", "properties": { "Clues": "CCIMS000045", "Institución": "Instituto Mexicano del Seguro Social", "Sigla de la Institución": "IMSS", "Entidad": "Campeche", "Municipio": "Cármen", "Siglas del tipo de unidad": "HGZMF", "Tipo de Unidad": "Hospital General de Zona con Medicina Familiar", "Unidad Médica": "Hospital General de Zona con Medicina Familiar No. 4 \"Ciudad del Carmen\"", "Cantidad de salas": 1, "Nivel de Atención": "Segundo Nivel", "Observaciones": "Dato por Comprobar", "Latitud": 18.64313, "Longitud": -91.84008, "Direccion": "CALLE 41 \"B\" SIN NUMERO, COLONIA CIUDAD DEL CARMEN DEL CENTRO, CARMEN, CAMPECHE, CP. 24100" }, "geometry": { "type": "Point", "coordinates": [ -91.84008, 18.64313 ] } },
{ "type": "Feature", "properties": { "Clues": "DFIMS000534", "Institución": "Instituto Mexicano del Seguro Social", "Sigla de la Institución": "IMSS", "Entidad": "Ciudad de México", "Municipio": "Benito Juárez", "Siglas del tipo de unidad": "HGR", "Tipo de Unidad": "Hospital General Regional", "Unidad Médica": "Hospital General Regional No. 1 \"Dr. Carlos MacGregor Sánchez Navarro\"", "Cantidad de salas": 2, "Nivel de Atención": "Segundo Nivel", "Observaciones": "No aplica", "Latitud": 19.39540282, "Longitud": -99.1609164, "Direccion": "CALLE GABRIEL MANCERA 222, COLONIA DEL VALLE, BENITO JUAREZ, CIUDAD DE MEXICO, CP. 03100" }, "geometry": { "type": "Point", "coordinates": [ -99.1609164, 19.39540282 ] } },
{ "type": "Feature", "properties": { "Clues": "DGIMS000042", "Institución": "Instituto Mexicano del Seguro Social", "Sigla de la Institución": "IMSS", "Entidad": "Durango", "Municipio": "Durango", "Siglas del tipo de unidad": "HGZ", "Tipo de Unidad": "Hospital General de Zona", "Unidad Médica": "Hospital General de Zona No. 1 \"Durango\"", "Cantidad de salas": 1, "Nivel de Atención": "Segundo Nivel", "Observaciones": "No aplica", "Latitud": 24.0288, "Longitud": -104.6821, "Direccion": "AVENIDA NORMAL 200, COLONIA SILVESTRE DORADOR, DURANGO, DURANGO, CP. 34070" }, "geometry": { "type": "Point", "coordinates": [ -104.6821, 24.0288 ] } },
{ "type": "Feature", "properties": { "Clues": "NTIMS000190", "Institución": "Instituto Mexicano del Seguro Social", "Sigla de la Institución": "IMSS", "Entidad": "Nayarit", "Municipio": "Tepic", "Siglas del tipo de unidad": "HGZ", "Tipo de Unidad": "Hospital General de Zona", "Unidad Médica": "Hospital General de Zona No. 1 \"Tepic\"", "Cantidad de salas": 1, "Nivel de Atención": "Segundo Nivel", "Observaciones": "No aplica", "Latitud": 21.51407747, "Longitud": -104.9102566, "Direccion": "AVENIDA INSURGENTES PTE 727, COLONIA VILLAS DE SAN ÁNGEL, TEPIC, NAYARIT, CP. 63120" }, "geometry": { "type": "Point", "coordinates": [ -104.9102566, 21.51407747 ] } },
{ "type": "Feature", "properties": { "Clues": "CMIMS000186", "Institución": "Instituto Mexicano del Seguro Social", "Sigla de la Institución": "IMSS", "Entidad": "Colima", "Municipio": "Villa de Álvarez", "Siglas del tipo de unidad": "HGZ", "Tipo de Unidad": "Hospital General de Zona", "Unidad Médica": "Hospital General de Zona No. 1 \"Villa de Álvarez\"", "Cantidad de salas": 1, "Nivel de Atención": "Segundo Nivel", "Observaciones": "No aplica", "Latitud": 19.26978, "Longitud": -103.75988, "Direccion": "AVENIDA LAPISLÁZULI 250, FRACCIONAMIENTO EL HAYA, VILLA DE ALVAREZ, COLIMA, CP. 28983" }, "geometry": { "type": "Point", "coordinates": [ -103.75988, 19.26978 ] } },
{ "type": "Feature", "properties": { "Clues": "ASIMS000161", "Institución": "Instituto Mexicano del Seguro Social", "Sigla de la Institución": "IMSS", "Entidad": "Aguascalientes", "Municipio": "Jesús María", "Siglas del tipo de unidad": "HGZ", "Tipo de Unidad": "Hospital General de Zona", "Unidad Médica": "Hospital General de Zona No. 3 \"Jesús María\"", "Cantidad de salas": 1, "Nivel de Atención": "Segundo Nivel", "Observaciones": "No aplica", "Latitud": 21.95702898, "Longitud": -102.3081576, "Direccion": "PROLONGACIÓN GRAL. IGNACIO ZARAGOZA 905, EJIDO JESÚS MARÍA, JESUS MARIA, AGUASCALIENTES, CP. 20908" }, "geometry": { "type": "Point", "coordinates": [ -102.3081576, 21.95702898 ] } },
{ "type": "Feature", "properties": { "Clues": "BCIMS000110", "Institución": "Instituto Mexicano del Seguro Social", "Sigla de la Institución": "IMSS", "Entidad": "Baja California", "Municipio": "Mexicali", "Siglas del tipo de unidad": "HGZ", "Tipo de Unidad": "Hospital General de Zona", "Unidad Médica": "Hospital General de Zona No. 30 \"Mexicali\"", "Cantidad de salas": 1, "Nivel de Atención": "Segundo Nivel", "Observaciones": "No aplica", "Latitud": 32.66208, "Longitud": -115.46801, "Direccion": "AVENIDA LERDO 1500, COLONIA NUEVA, MEXICALI, BAJA CALIFORNIA, CP. 21100" }, "geometry": { "type": "Point", "coordinates": [ -115.46801, 32.66208 ] } },
{ "type": "Feature", "properties": { "Clues": "TCIMS000121", "Institución": "Instituto Mexicano del Seguro Social", "Sigla de la Institución": "IMSS", "Entidad": "Tabasco", "Municipio": "Centro", "Siglas del tipo de unidad": "HGZ", "Tipo de Unidad": "Hospital General de Zona", "Unidad Médica": "Hospital General de Zona No. 46 \"Villahermosa\"", "Cantidad de salas": 1, "Nivel de Atención": "Segundo Nivel", "Observaciones": "No aplica", "Latitud": 18.0139239, "Longitud": -92.9158088, "Direccion": "AVENIDA UNIVERSIDAD SIN NUMERO, COLONIA CASA BLANCA, CENTRO, TABASCO, CP. 86060" }, "geometry": { "type": "Point", "coordinates": [ -92.9158088, 18.0139239 ] } },
{ "type": "Feature", "properties": { "Clues": "SPIMS000376", "Institución": "Instituto Mexicano del Seguro Social", "Sigla de la Institución": "IMSS", "Entidad": "San Luis Potosí", "Municipio": "San Luis Potosí", "Siglas del tipo de unidad": "HGZ", "Tipo de Unidad": "Hospital General de Zona", "Unidad Médica": "Hospital General de Zona No. 50 \"Tangamanga\"", "Cantidad de salas": 1, "Nivel de Atención": "Segundo Nivel", "Observaciones": "No aplica", "Latitud": 22.13431, "Longitud": -100.9223, "Direccion": "AVENIDA TANNGAMANGA 205, COLONIA RICARDO B ANAYA, SAN LUIS POTOSI, SAN LUIS POTOSI, CP. 78390" }, "geometry": { "type": "Point", "coordinates": [ -100.9223, 22.13431 ] } },
{ "type": "Feature", "properties": { "Clues": "VZIMS000564", "Institución": "Instituto Mexicano del Seguro Social", "Sigla de la Institución": "IMSS", "Entidad": "Veracruz", "Municipio": "Xalapa", "Siglas del tipo de unidad": "HGZ", "Tipo de Unidad": "Hospital General de Zona", "Unidad Médica": "Hospital General de Zona No.11 \"Xalapa\"", "Cantidad de salas": 1, "Nivel de Atención": "Segundo Nivel", "Observaciones": "No aplica", "Latitud": 19.5222, "Longitud": -96.92036, "Direccion": "CALLE LOMAS DEL ESTADIO SIN NUMERO, COLONIA JALAPA ENRÍQUEZ CENTRO, XALAPA, VERACRUZ DE IGNACIO DE LA LLAVE, CP. 91000" }, "geometry": { "type": "Point", "coordinates": [ -96.92036, 19.5222 ] } },
{ "type": "Feature", "properties": { "Clues": "DFIMS000061", "Institución": "Instituto Mexicano del Seguro Social", "Sigla de la Institución": "IMSS", "Entidad": "Ciudad de México", "Municipio": "Azcapotzalco", "Siglas del tipo de unidad": "HG", "Tipo de Unidad": "Hospital General", "Unidad Médica": "Hospital General del \"CMN La Raza\"", "Cantidad de salas": 1, "Nivel de Atención": "Segundo Nivel", "Observaciones": "No aplica", "Latitud": 19.486, "Longitud": -99.182, "Direccion": "CIRCUITO INTEROR PASEO DE LAS JACARANDAS SIN NUMERO, COLONIA LA RAZA, AZCAPOTZALCO, CIUDAD DE MEXICO, CP. 02990" }, "geometry": { "type": "Point", "coordinates": [ -99.182, 19.486 ] } },
{ "type": "Feature", "properties": { "Clues": "VZIMS000733", "Institución": "Instituto Mexicano del Seguro Social", "Sigla de la Institución": "IMSS", "Entidad": "Veracruz", "Municipio": "Orizaba", "Siglas del tipo de unidad": "HGR", "Tipo de Unidad": "Hospital General Regional", "Unidad Médica": "Hospital General Regional \"Orizaba\"", "Cantidad de salas": 1, "Nivel de Atención": "Segundo Nivel", "Observaciones": "No aplica", "Latitud": 18.84974, "Longitud": -97.0847, "Direccion": "AVENIDA ORIENTE 6 SIN NUMERO, COLONIA ORIZABA CENTRO, ORIZABA, VERACRUZ DE IGNACIO DE LA LLAVE, CP. 94300" }, "geometry": { "type": "Point", "coordinates": [ -97.0847, 18.84974 ] } },
{ "type": "Feature", "properties": { "Clues": "CSIMS000391", "Institución": "Instituto Mexicano del Seguro Social", "Sigla de la Institución": "IMSS", "Entidad": "Chiapas", "Municipio": "Tuxtla Gutiérrez", "Siglas del tipo de unidad": "HGRE", "Tipo de Unidad": "Hospital General Regional con Especialidades", "Unidad Médica": "Hospital General Regional con Especialidades No. 13 \"XVI Septiembre\"", "Cantidad de salas": 1, "Nivel de Atención": "Segundo Nivel", "Observaciones": "No aplica", "Latitud": 16.78373, "Longitud": -93.17297, "Direccion": "CARRETERA CHICOASEN SN, COLONIA PLAN DE AYALA, TUXTLA GUTIERREZ, CHIAPAS, CP. 29020" }, "geometry": { "type": "Point", "coordinates": [ -93.17297, 16.78373 ] } },
{ "type": "Feature", "properties": { "Clues": "MSIMS000054", "Institución": "Instituto Mexicano del Seguro Social", "Sigla de la Institución": "IMSS", "Entidad": "Morelos", "Municipio": "Cuernavaca", "Siglas del tipo de unidad": "HGRMF", "Tipo de Unidad": "Hospital General Regional con Medicina Familiar", "Unidad Médica": "Hospital General Regional con Medicina Familiar No. 1 \"Cuernavaca\"", "Cantidad de salas": 1, "Nivel de Atención": "Segundo Nivel", "Observaciones": "No aplica", "Latitud": 18.9223557, "Longitud": -99.2054656, "Direccion": "AVENIDA PLAN DE AYALA 201, COLONIA RICARDO FLORES MAGÓN, CUERNAVACA, MORELOS, CP. 62450" }, "geometry": { "type": "Point", "coordinates": [ -99.2054656, 18.9223557 ] } },
{ "type": "Feature", "properties": { "Clues": "MNIMS000605", "Institución": "Instituto Mexicano del Seguro Social", "Sigla de la Institución": "IMSS", "Entidad": "Michoacán", "Municipio": "Charo", "Siglas del tipo de unidad": "HGR", "Tipo de Unidad": "Hospital General Regional", "Unidad Médica": "Hospital General Regional No. 1 \"Charo\"", "Cantidad de salas": 1, "Nivel de Atención": "Segundo Nivel", "Observaciones": "No aplica", "Latitud": 19.72491525, "Longitud": -101.0929868, "Direccion": "AVENIDA BOSQUES DE LOS OLIVOS 101, PUEBLO LA GOLETA, CHARO, MICHOACAN DE OCAMPO, CP. 61303" }, "geometry": { "type": "Point", "coordinates": [ -101.0929868, 19.72491525 ] } },
{ "type": "Feature", "properties": { "Clues": "CHIMS000136", "Institución": "Instituto Mexicano del Seguro Social", "Sigla de la Institución": "IMSS", "Entidad": "Chihuahua", "Municipio": "Chihuahua", "Siglas del tipo de unidad": "HGR", "Tipo de Unidad": "Hospital General Regional", "Unidad Médica": "Hospital General Regional No. 1 \"Chihuahua\"", "Cantidad de salas": 1, "Nivel de Atención": "Segundo Nivel", "Observaciones": "No aplica", "Latitud": 28.6437, "Longitud": -106.07881, "Direccion": "AVENIDA UNIVERSIDAD SIN NUMERO, COLONIA CHIHUAHUA CENTRO, CHIHUAHUA, CHIHUAHUA, CP. 31000" }, "geometry": { "type": "Point", "coordinates": [ -106.07881, 28.6437 ] } },
{ "type": "Feature", "properties": { "Clues": "SLIMS000131", "Institución": "Instituto Mexicano del Seguro Social", "Sigla de la Institución": "IMSS", "Entidad": "Sinaloa", "Municipio": "Culiacán", "Siglas del tipo de unidad": "HGR", "Tipo de Unidad": "Hospital General Regional", "Unidad Médica": "Hospital General Regional No. 1 \"Culiacán\"", "Cantidad de salas": 1, "Nivel de Atención": "Segundo Nivel", "Observaciones": "No aplica", "Latitud": 24.79738497, "Longitud": -107.3901023, "Direccion": "BOULEVARD FRANCISCO ZARZO SIN NUMERO, COLONIA MIGUEL ALEMÁN, CULIACAN, SINALOA, CP. 80200" }, "geometry": { "type": "Point", "coordinates": [ -107.3901023, 24.79738497 ] } },
{ "type": "Feature", "properties": { "Clues": "BCIMS000373", "Institución": "Instituto Mexicano del Seguro Social", "Sigla de la Institución": "IMSS", "Entidad": "Baja California", "Municipio": "Tijuana", "Siglas del tipo de unidad": "HGR", "Tipo de Unidad": "Hospital General Regional", "Unidad Médica": "Hospital General Regional No. 1 \"Tijuana\"", "Cantidad de salas": 1, "Nivel de Atención": "Segundo Nivel", "Observaciones": "No aplica", "Latitud": 32.477086, "Longitud": -116.926816, "Direccion": "CALLE CANADÁ 16801, COLONIA RIO TIJUANA 3ERA ETAPA, TIJUANA, BAJA CALIFORNIA, CP. 22226" }, "geometry": { "type": "Point", "coordinates": [ -116.926816, 32.477086 ] } },
{ "type": "Feature", "properties": { "Clues": "GRIMS000013", "Institución": "Instituto Mexicano del Seguro Social", "Sigla de la Institución": "IMSS", "Entidad": "Guerrero", "Municipio": "Acapulco de Juárez", "Siglas del tipo de unidad": "HGR", "Tipo de Unidad": "Hospital General Regional", "Unidad Médica": "Hospital General Regional No. 1 \"Vicente Guerrero\"", "Cantidad de salas": 1, "Nivel de Atención": "Segundo Nivel", "Observaciones": "No aplica", "Latitud": 16.87335, "Longitud": -99.89076, "Direccion": "AVENIDA ADOLFO RUIZ CORTINES SIN NUMERO, COLONIA ALTA PROGRESO, ACAPULCO DE JUAREZ, GUERRERO, CP. 39610" }, "geometry": { "type": "Point", "coordinates": [ -99.89076, 16.87335 ] } },
{ "type": "Feature", "properties": { "Clues": "QRIMS000142", "Institución": "Instituto Mexicano del Seguro Social", "Sigla de la Institución": "IMSS", "Entidad": "Quintana Roo", "Municipio": "Benito Juárez", "Siglas del tipo de unidad": "HGR", "Tipo de Unidad": "Hospital General Regional", "Unidad Médica": "Hospital General Regional No. 17 \"Cancún\"", "Cantidad de salas": 1, "Nivel de Atención": "Segundo Nivel", "Observaciones": "No aplica", "Latitud": 21.13648, "Longitud": -86.8552, "Direccion": "AVENIDA POLITÉCNICO NACIONAL MZ. 1 LOTE 1, COLONIA REGIÓN 506, BENITO JUAREZ, QUINTANA ROO, CP. 77533" }, "geometry": { "type": "Point", "coordinates": [ -86.8552, 21.13648 ] } },
{ "type": "Feature", "properties": { "Clues": "CHIMS000626", "Institución": "Instituto Mexicano del Seguro Social", "Sigla de la Institución": "IMSS", "Entidad": "Chihuahua", "Municipio": null, "Siglas del tipo de unidad": "HGR", "Tipo de Unidad": "Hospital General Regional", "Unidad Médica": "Hospital General Regional No. 2 \"Ciudad Juárez\"", "Cantidad de salas": 1, "Nivel de Atención": "Segundo Nivel", "Observaciones": "No aplica", "Latitud": 31.73199, "Longitud": -106.40273, "Direccion": "AVENIDA VICENTE GUERRERO 8560, COLONIA LAS QUINTAS, CIUDAD JUÁREZ, CHIHUAHUA, CP. 32424" }, "geometry": { "type": "Point", "coordinates": [ -106.40273, 31.73199 ] } },
{ "type": "Feature", "properties": { "Clues": "QTIMS000285", "Institución": "Instituto Mexicano del Seguro Social", "Sigla de la Institución": "IMSS", "Entidad": "Querétaro", "Municipio": "El Marqués", "Siglas del tipo de unidad": "HGR", "Tipo de Unidad": "Hospital General Regional", "Unidad Médica": "Hospital General Regional No. 2 \"El Marqués\"", "Cantidad de salas": 1, "Nivel de Atención": "Segundo Nivel", "Observaciones": "No aplica", "Latitud": 20.6461738, "Longitud": -100.3346625, "Direccion": "CIRCUITO UNIVERSIDADES 2DA ETAPA KM 1 SIN NUMERO, FRACCIONAMIENTO LA PRADERA, EL MARQUES, QUERETARO, CP. 76269" }, "geometry": { "type": "Point", "coordinates": [ -100.3346625, 20.6461738 ] } },
{ "type": "Feature", "properties": { "Clues": "MCIMS001185", "Institución": "Instituto Mexicano del Seguro Social", "Sigla de la Institución": "IMSS", "Entidad": "Estado de México", "Municipio": "Metepec", "Siglas del tipo de unidad": "HGR", "Tipo de Unidad": "Hospital General Regional", "Unidad Médica": "Hospital General Regional No. 251 \"Metepec\"", "Cantidad de salas": 1, "Nivel de Atención": "Segundo Nivel", "Observaciones": "No aplica", "Latitud": 19.24665723, "Longitud": -99.57690678, "Direccion": "AVENIDA CODAGEM 501, COLONIA MAYORAZGO, METEPEC, MEXICO, CP. 52140" }, "geometry": { "type": "Point", "coordinates": [ -99.57690678, 19.24665723 ] } },
{ "type": "Feature", "properties": { "Clues": "JCIMS000371", "Institución": "Instituto Mexicano del Seguro Social", "Sigla de la Institución": "IMSS", "Entidad": "Jalisco", "Municipio": "Guadalajara", "Siglas del tipo de unidad": "HGR", "Tipo de Unidad": "Hospital General Regional", "Unidad Médica": "Hospital General Regional No. 46 \"Guadalajara\"", "Cantidad de salas": 1, "Nivel de Atención": "Segundo Nivel", "Observaciones": "No aplica", "Latitud": 20.6475, "Longitud": -103.3622, "Direccion": "AVENIDA LÁZARO CÁRDENAS 1060, COLONIA 8 DE JULIO, GUADALAJARA, JALISCO, CP. 44910" }, "geometry": { "type": "Point", "coordinates": [ -103.3622, 20.6475 ] } },
{ "type": "Feature", "properties": { "Clues": "DFSDN000086", "Institución": "Secretaría de la Defensa Nacional", "Sigla de la Institución": "SEDENA", "Entidad": "Ciudad de México", "Municipio": "Miguel Hidalgo", "Siglas del tipo de unidad": "HC", "Tipo de Unidad": "Hospital Central", "Unidad Médica": "Hospital Central Militar", "Cantidad de salas": 1, "Nivel de Atención": "Tercer Nivel", "Observaciones": "No aplica", "Latitud": 19.43767, "Longitud": -99.21533, "Direccion": "AVENIDA EJÉRCITO NACIONAL S/N, COLONIA LOMAS DE SOTELO, MIGUEL HIDALGO, CIUDAD DE MEXICO, CP. 11200" }, "geometry": { "type": "Point", "coordinates": [ -99.21533, 19.43767 ] } },
{ "type": "Feature", "properties": { "Clues": "DFSMA000046", "Institución": "Secretaría de Marina", "Sigla de la Institución": "SEMAR", "Entidad": "Ciudad de México", "Municipio": "Coyoacán", "Siglas del tipo de unidad": "HC", "Tipo de Unidad": "Hospital Central", "Unidad Médica": "Centro Médico Naval", "Cantidad de salas": 1, "Nivel de Atención": "Tercer Nivel", "Observaciones": "No aplica", "Latitud": 19.3238, "Longitud": -99.12522, "Direccion": "EJE VIAL 2 ORIENTE TRAMO HEROICA ESCUELA NAVAL MILITAR 745, COLONIA PRESIDENTES EJIDALES 1ERA. SECCIÓN, COYOACAN, CIUDAD DE MEXICO, CP. 04470" }, "geometry": { "type": "Point", "coordinates": [ -99.12522, 19.3238 ] } },
{ "type": "Feature", "properties": { "Clues": "JCSSA002195", "Institución": "Secretaria de Salud", "Sigla de la Institución": "SSA", "Entidad": "Jalisco", "Municipio": "Guadalajara", "Siglas del tipo de unidad": "HCVL", "Tipo de Unidad": "Hospital Civil", "Unidad Médica": "Antiguo Hospital Civil de Guadalajara Fray Antonio Alcalde", "Cantidad de salas": 1, "Nivel de Atención": "Tercer Nivel", "Observaciones": "No aplica", "Latitud": 20.715989, "Longitud": -103.3546516, "Direccion": "CALLE HOSPITAL 278, COLONIA EL RETIRO, GUADALAJARA, JALISCO, CP. 44280" }, "geometry": { "type": "Point", "coordinates": [ -103.3546516, 20.715989 ] } },
{ "type": "Feature", "properties": { "Clues": "DGSSA017872", "Institución": "Secretaria de Salud", "Sigla de la Institución": "SSA", "Entidad": "Durango", "Municipio": "Durango", "Siglas del tipo de unidad": "HG", "Tipo de Unidad": "Hospital General", "Unidad Médica": "Hospital General 450", "Cantidad de salas": 1, "Nivel de Atención": "Segundo Nivel", "Observaciones": "No aplica", "Latitud": 24.0554637, "Longitud": -104.6411711, "Direccion": "BOULEVARD JOSE MARIA PATONI 403  , COLONIA EL CIPRES, DURANGO, DURANGO, CP. 34217" }, "geometry": { "type": "Point", "coordinates": [ -104.6411711, 24.0554637 ] } },
{ "type": "Feature", "properties": { "Clues": "DFIMB000842", "Institución": "Servicios de Salud del Instituto Mexicano del Seguro Social para el Bienestar", "Sigla de la Institución": "IMSS-Bienestar", "Entidad": "Ciudad de México", "Municipio": "Iztapalapa", "Siglas del tipo de unidad": "HG", "Tipo de Unidad": "Hospital General", "Unidad Médica": "Hospital General de Iztapalapa", "Cantidad de salas": 1, "Nivel de Atención": "Segundo Nivel", "Observaciones": "No aplica", "Latitud": 19.34400254, "Longitud": -99.02738212, "Direccion": "CALZADA ERMITA IZTAPALAPA 3018, COLONIA CITLALI, IZTAPALAPA, CIUDAD DE MEXICO, CP. 09660" }, "geometry": { "type": "Point", "coordinates": [ -99.02738212, 19.34400254 ] } },
{ "type": "Feature", "properties": { "Clues": "QTSSA002901", "Institución": "Secretaria de Salud", "Sigla de la Institución": "SSA", "Entidad": "Querétaro", "Municipio": "Querétaro", "Siglas del tipo de unidad": "HG", "Tipo de Unidad": "Hospital General", "Unidad Médica": "Hospital General de Querétaro", "Cantidad de salas": 1, "Nivel de Atención": "Segundo Nivel", "Observaciones": "No aplica", "Latitud": 20.57496157, "Longitud": -100.4164967, "Direccion": "CALLE JOSE ANTONIO GARCIA JIMENO 1000, COLONIA JARDINES DE LA HACIENDA, QUERETARO, QUERETARO, CP. 76180" }, "geometry": { "type": "Point", "coordinates": [ -100.4164967, 20.57496157 ] } },
{ "type": "Feature", "properties": { "Clues": "GTSSA005683", "Institución": "Secretaria de Salud", "Sigla de la Institución": "SSA", "Entidad": "Guanajuato", "Municipio": "León", "Siglas del tipo de unidad": "HG", "Tipo de Unidad": "Hospital General", "Unidad Médica": "Hospital General León", "Cantidad de salas": 1, "Nivel de Atención": "Segundo Nivel", "Observaciones": "No aplica", "Latitud": 21.06002, "Longitud": -101.56666, "Direccion": "BOULEVARD MILENIO 1002, COLONIA FRACCIONES DE LOS AGUIRRE, LEÓN, GUANAJUATO, CP. 37672" }, "geometry": { "type": "Point", "coordinates": [ -101.56666, 21.06002 ] } },
{ "type": "Feature", "properties": { "Clues": "CLSSA002862", "Institución": "Secretaria de Salud", "Sigla de la Institución": "SSA", "Entidad": "Coahuila", "Municipio": "Torreón", "Siglas del tipo de unidad": "HG", "Tipo de Unidad": "Hospital General", "Unidad Médica": "Hospital General Torreón ", "Cantidad de salas": 1, "Nivel de Atención": "Segundo Nivel", "Observaciones": "No aplica", "Latitud": 25.551891, "Longitud": -103.439128, "Direccion": "CALZADA DR. JOSÉ MARÍA RODRÍGUEZ 9000, EJIDO EL AGUILA, TORREÓN, COAHUILA, CP. 27060" }, "geometry": { "type": "Point", "coordinates": [ -103.439128, 25.551891 ] } },
{ "type": "Feature", "properties": { "Clues": "MCIMB012283", "Institución": "Servicios de Salud del Instituto Mexicano del Seguro Social para el Bienestar", "Sigla de la Institución": "IMSS-Bienestar", "Entidad": "Estado de México", "Municipio": "Zumpango", "Siglas del tipo de unidad": "HRAE", "Tipo de Unidad": "Hospital Regional de Alta Especialidad", "Unidad Médica": "Hospital Regional de Alta Especialidad de Zumpango", "Cantidad de salas": 1, "Nivel de Atención": "Tercer Nivel", "Observaciones": "No aplica", "Latitud": 19.81539366, "Longitud": -99.08916452, "Direccion": "CARRETERA ZUMPANGO JILOTZINGO 400, BARRIO SANTIAGO SEGUNDA SECCIÓN, ZUMPANGO, MEXICO, CP. 55615" }, "geometry": { "type": "Point", "coordinates": [ -99.08916452, 19.81539366 ] } },
{ "type": "Feature", "properties": { "Clues": "JCSSA002224", "Institución": "Secretaria de Salud", "Sigla de la Institución": "SSA", "Entidad": "Jalisco", "Municipio": "Guadalajara", "Siglas del tipo de unidad": "HCVL", "Tipo de Unidad": "Hospital Civil", "Unidad Médica": "Nuevo Hospital Civil de Guadalajara Dr. Juan I. Menchaca", "Cantidad de salas": 1, "Nivel de Atención": "Segundo Nivel", "Observaciones": "No aplica", "Latitud": 20.686965, "Longitud": -103.3340768, "Direccion": "CALLE SALVADOR QUEVEDO Y ZUBIETA 750, COLONIA INDEPENDENCIA  ORIENTE, GUADALAJARA, JALISCO, CP. 44340" }, "geometry": { "type": "Point", "coordinates": [ -103.3340768, 20.686965 ] } },
{ "type": "Feature", "properties": { "Clues": "DFPMX000024", "Institución": "Servicios de Salud de Petróleos Mexicanos", "Sigla de la Institución": "PEMEX", "Entidad": "Ciudad de México", "Municipio": "Tlalpan", "Siglas del tipo de unidad": "HC", "Tipo de Unidad": "Hospital Central", "Unidad Médica": "Hospital Central Sur de Alta Especialidad", "Cantidad de salas": 1, "Nivel de Atención": "Tercer Nivel", "Observaciones": "No aplica", "Latitud": 19.30855, "Longitud": -99.21889, "Direccion": "AVENIDA PERIFERICO SUR 4091, COLONIA FUENTES DEL PEDREGAL, TLALPAN, CIUDAD DE MEXICO, CP. 14140" }, "geometry": { "type": "Point", "coordinates": [ -99.21889, 19.30855 ] } },
{ "type": "Feature", "properties": { "Clues": "MCSSA018786", "Institución": "Servicios de Salud del Instituto Mexicano del Seguro Social para el Bienestar", "Sigla de la Institución": "IMSS-Bienestar", "Entidad": "Estado de México", "Municipio": "Ixtapaluca", "Siglas del tipo de unidad": "HRAE", "Tipo de Unidad": "Hospital Regional de Alta Especialidad", "Unidad Médica": "Hospital Regional de Alta Especialidad de Ixtapaluca", "Cantidad de salas": 1, "Nivel de Atención": "Tercer Nivel", "Observaciones": "No aplica", "Latitud": 19.31894973, "Longitud": -98.85525789, "Direccion": "CARRETERA FEDERAL MÉXICO-PUEBLA KM. 34.5  , COLONIA IXTAPALUCA, IXTAPALUCA, MEXICO, CP. 56530" }, "geometry": { "type": "Point", "coordinates": [ -98.85525789, 19.31894973 ] } },
{ "type": "Feature", "properties": { "Clues": "OCSSA007483", "Institución": "Servicios de Salud del Instituto Mexicano del Seguro Social para el Bienestar", "Sigla de la Institución": "IMSS-Bienestar", "Entidad": "Oaxaca", "Municipio": "San Bartolo Coyotepec", "Siglas del tipo de unidad": "HRAE", "Tipo de Unidad": "Hospital Regional de Alta Especialidad", "Unidad Médica": "Hospital Regional de Alta Especialidad de Oaxaca", "Cantidad de salas": 1, "Nivel de Atención": "Tercer Nivel", "Observaciones": "No aplica", "Latitud": 16.94872367, "Longitud": -96.7140362, "Direccion": "CALLE ALDAMA SIN NÚMERO, COLONIA OTRA NO ESPECÍFICADA EN EL CATALOGO, SAN BARTOLO COYOTEPEC, OAXACA, CP. 71294" }, "geometry": { "type": "Point", "coordinates": [ -96.7140362, 16.94872367 ] } },
{ "type": "Feature", "properties": { "Clues": "MCIMB009145", "Institución": "Servicios de Salud del Instituto Mexicano del Seguro Social para el Bienestar", "Sigla de la Institución": "IMSS-Bienestar", "Entidad": "Estado de México", "Municipio": "Toluca", "Siglas del tipo de unidad": "CM", "Tipo de Unidad": "Centro Médico", "Unidad Médica": "Centro Médico \"Lic. Adolfo López Mateos\"", "Cantidad de salas": 1, "Nivel de Atención": "Tercer Nivel", "Observaciones": "No aplica", "Latitud": 19.32007792, "Longitud": -99.63337208, "Direccion": "AVENIDA DR. NICOLAS SAN JUAN  SIN NÚMERO, COLONIA LA MAGDALENA, TOLUCA, MEXICO, CP. 50010" }, "geometry": { "type": "Point", "coordinates": [ -99.63337208, 19.32007792 ] } },
{ "type": "Feature", "properties": { "Clues": "SPIMB002574", "Institución": "Servicios de Salud del Instituto Mexicano del Seguro Social para el Bienestar", "Sigla de la Institución": "IMSS-Bienestar", "Entidad": "San Luis Potosí", "Municipio": "San Luis Potosí", "Siglas del tipo de unidad": "HC", "Tipo de Unidad": "Hospital Central", "Unidad Médica": "Hospital Central \"Dr. Ignacio Morones Prieto\"", "Cantidad de salas": 1, "Nivel de Atención": "Tercer Nivel", "Observaciones": "No aplica", "Latitud": 22.147998, "Longitud": -101.014679, "Direccion": "CALLE VENUSTIANO CARRANZA 2395 BIS, COLONIA UNVERSITARIA, SAN LUIS POTOSI, SAN LUIS POTOSI, CP. 78290" }, "geometry": { "type": "Point", "coordinates": [ -101.014679, 22.147998 ] } },
{ "type": "Feature", "properties": { "Clues": "VZIMB002330", "Institución": "Servicios de Salud del Instituto Mexicano del Seguro Social para el Bienestar", "Sigla de la Institución": "IMSS-Bienestar", "Entidad": "Veracruz", "Municipio": "Xalapa", "Siglas del tipo de unidad": "HAE", "Tipo de Unidad": "Hospital de Alta Especialidad", "Unidad Médica": "Hospital de Alta Especialidad \"Dr. Rafael Lucio\"", "Cantidad de salas": 1, "Nivel de Atención": "Tercer Nivel", "Observaciones": "No aplica", "Latitud": 19.18562, "Longitud": -96.1321, "Direccion": "AVENIDA ADOLFO RUIZ CORTINES 2903, COLONIA UNIDAD MAGISTERIAL, XALAPA, VERACRUZ DE IGNACIO DE LA LLAVE, CP. 91020" }, "geometry": { "type": "Point", "coordinates": [ -96.1321, 19.18562 ] } },
{ "type": "Feature", "properties": { "Clues": "VZIMB005533", "Institución": "Servicios de Salud del Instituto Mexicano del Seguro Social para el Bienestar", "Sigla de la Institución": "IMSS-Bienestar", "Entidad": "Veracruz", "Municipio": "Veracruz", "Siglas del tipo de unidad": "HAE", "Tipo de Unidad": "Hospital de Alta Especialidad", "Unidad Médica": "Hospital de Alta Especialidad de Veracruz", "Cantidad de salas": 1, "Nivel de Atención": "Tercer Nivel", "Observaciones": "No aplica", "Latitud": 19.18562, "Longitud": -96.1321, "Direccion": "AVENIDA 20 DE NOVIEMBRE 1074, COLONIA CENTRO, VERACRUZ, VERACRUZ DE IGNACIO DE LA LLAVE, CP. 91700" }, "geometry": { "type": "Point", "coordinates": [ -96.1321, 19.18562 ] } },
{ "type": "Feature", "properties": { "Clues": "DFIMB002266", "Institución": "Servicios de Salud del Instituto Mexicano del Seguro Social para el Bienestar", "Sigla de la Institución": "IMSS-Bienestar", "Entidad": "Ciudad de México", "Municipio": "Iztapalapa", "Siglas del tipo de unidad": "HES", "Tipo de Unidad": "Hospital de Especialidades", "Unidad Médica": "Hospital de Especialidades \"Dr. Belisario Domínguez\"", "Cantidad de salas": 1, "Nivel de Atención": "Tercer Nivel", "Observaciones": "No aplica", "Latitud": 19.3066411, "Longitud": -99.0660984, "Direccion": "AVENIDA TLAHUAC 4866, PUEBLO SAN LORENZO TEZONCO, IZTAPALAPA, CIUDAD DE MEXICO, CP. 09790" }, "geometry": { "type": "Point", "coordinates": [ -99.0660984, 19.3066411 ] } },
{ "type": "Feature", "properties": { "Clues": "TSIMB002520", "Institución": "Servicios de Salud del Instituto Mexicano del Seguro Social para el Bienestar", "Sigla de la Institución": "IMSS-Bienestar", "Entidad": "Tamaulipas", "Municipio": "Tampico", "Siglas del tipo de unidad": "HES", "Tipo de Unidad": "Hospital de Especialidades", "Unidad Médica": "Hospital de Especialidades \"Dr. Carlos Canseco\"", "Cantidad de salas": 1, "Nivel de Atención": "Tercer Nivel", "Observaciones": "No aplica", "Latitud": 22.253176, "Longitud": -97.859497, "Direccion": "AVENIDA EJÉRCTO MEXICANO 1403, COLONIA ALLENDE, TAMPICO, TAMAULIPAS, CP. 89130" }, "geometry": { "type": "Point", "coordinates": [ -97.859497, 22.253176 ] } },
{ "type": "Feature", "properties": { "Clues": "CSIMB003511", "Institución": "Servicios de Salud del Instituto Mexicano del Seguro Social para el Bienestar", "Sigla de la Institución": "IMSS-Bienestar", "Entidad": "Chiapas", "Municipio": "Tuxtla Gutiérrez", "Siglas del tipo de unidad": "HES", "Tipo de Unidad": "Hospital de Especialidades", "Unidad Médica": "Hospital de Especialidades Pediátricas", "Cantidad de salas": 1, "Nivel de Atención": "Tercer Nivel", "Observaciones": "No aplica", "Latitud": 16.75066, "Longitud": -93.07805, "Direccion": "BOULEVARD SS JUAN PABLO II SIN NÚMERO, COLONIA CASTILLO TIELMANS, TUXTLA GUTIERREZ, CHIAPAS, CP. 29070" }, "geometry": { "type": "Point", "coordinates": [ -93.07805, 16.75066 ] } },
{ "type": "Feature", "properties": { "Clues": "PLIMB005205", "Institución": "Servicios de Salud del Instituto Mexicano del Seguro Social para el Bienestar", "Sigla de la Institución": "IMSS-Bienestar", "Entidad": "Puebla", "Municipio": "San Andrés Cholula", "Siglas del tipo de unidad": "H", "Tipo de Unidad": "Hospital", "Unidad Médica": "Hospital de la Niñez Poblana", "Cantidad de salas": 1, "Nivel de Atención": "Segundo Nivel", "Observaciones": "No aplica", "Latitud": 19.03501, "Longitud": -98.24439, "Direccion": "BOULEVARD DEL NIÑO POBLANO 5307, COLONIA CONCEPCIÓN LA CRUZ, SAN ANDRES CHOLULA, PUEBLA, CP. 72836" }, "geometry": { "type": "Point", "coordinates": [ -98.24439, 19.03501 ] } },
{ "type": "Feature", "properties": { "Clues": "PLIMB001780", "Institución": "Servicios de Salud del Instituto Mexicano del Seguro Social para el Bienestar", "Sigla de la Institución": "IMSS-Bienestar", "Entidad": "Puebla", "Municipio": "Puebla", "Siglas del tipo de unidad": "HG", "Tipo de Unidad": "Hospital General", "Unidad Médica": "Hospital General \"Dr. Eduardo Vázquez N.\"", "Cantidad de salas": 1, "Nivel de Atención": "Tercer Nivel", "Observaciones": "No aplica", "Latitud": 18.9862587, "Longitud": -98.2421342, "Direccion": "CALLE ANTIGUO CAMINO A GUADALUPE HIDALGO 11350, UNIDAD HABITACIONAL INFONAVIT AGUA SANTA, PUEBLA, PUEBLA, CP. 72490" }, "geometry": { "type": "Point", "coordinates": [ -98.2421342, 18.9862587 ] } },
{ "type": "Feature", "properties": { "Clues": "MNIMB003590", "Institución": "Servicios de Salud del Instituto Mexicano del Seguro Social para el Bienestar", "Sigla de la Institución": "IMSS-Bienestar", "Entidad": "Michoacán", "Municipio": "Morelia", "Siglas del tipo de unidad": "HG", "Tipo de Unidad": "Hospital General", "Unidad Médica": "Hospital General \"Dr. Miguel Silva\"", "Cantidad de salas": 1, "Nivel de Atención": "Tercer Nivel", "Observaciones": "No aplica", "Latitud": 19.731491, "Longitud": -101.105271, "Direccion": "BOULEVARD BOSQUES DE EUCALIPTO SIN NÚMERO, EJIDO EJIDO ATAPANEO, MORELIA, MICHOACAN DE OCAMPO, CP. 58253" }, "geometry": { "type": "Point", "coordinates": [ -101.105271, 19.731491 ] } },
{ "type": "Feature", "properties": { "Clues": "TSIMB001955", "Institución": "Servicios de Salud del Instituto Mexicano del Seguro Social para el Bienestar", "Sigla de la Institución": "IMSS-Bienestar", "Entidad": "Tamaulipas", "Municipio": "Victoria", "Siglas del tipo de unidad": "HG", "Tipo de Unidad": "Hospital General", "Unidad Médica": "Hospital General \"Dr. Norberto Treviño Zapata\"", "Cantidad de salas": 1, "Nivel de Atención": "Tercer Nivel", "Observaciones": "No aplica", "Latitud": 23.748326, "Longitud": -99.137855, "Direccion": "BOULEVARD FIDEL VELÁZQUEZ 1845, COLONIA REVOLUCIÓN VERDE, VICTORIA, TAMAULIPAS, CP. 87024" }, "geometry": { "type": "Point", "coordinates": [ -99.137855, 23.748326 ] } },
{ "type": "Feature", "properties": { "Clues": "GRIMB008926", "Institución": "Servicios de Salud del Instituto Mexicano del Seguro Social para el Bienestar", "Sigla de la Institución": "IMSS-Bienestar", "Entidad": "Guerrero", "Municipio": "Acapulco de Juárez", "Siglas del tipo de unidad": "HG", "Tipo de Unidad": "Hospital General", "Unidad Médica": "Hospital General de Acapulco", "Cantidad de salas": 1, "Nivel de Atención": "Segundo Nivel", "Observaciones": "No aplica", "Latitud": 16.930872, "Longitud": -99.82064, "Direccion": "CARRETERA FEDERAL MEXICO ACAPULCO LOTE 1-2 SIN NÚMERO, COLONIA SECCION LOS ORGANOS, ACAPULCO DE JUAREZ, GUERRERO, CP. 39901" }, "geometry": { "type": "Point", "coordinates": [ -99.82064, 16.930872 ] } },
{ "type": "Feature", "properties": { "Clues": "QRIMB001973", "Institución": "Servicios de Salud del Instituto Mexicano del Seguro Social para el Bienestar", "Sigla de la Institución": "IMSS-Bienestar", "Entidad": "Quintana Roo", "Municipio": "Benito Juárez", "Siglas del tipo de unidad": "HG", "Tipo de Unidad": "Hospital General", "Unidad Médica": "Hospital General de Cancún \"Dr. Jesús Kumate Rodríguez\"", "Cantidad de salas": 1, "Nivel de Atención": "Segundo Nivel", "Observaciones": "No aplica", "Latitud": 21.19531, "Longitud": -86.87687, "Direccion": "AVENIDA ARCO NORTE 1110-19, FRACCIONAMIENTO VILLAS DEL MAR , BENITO JUAREZ, QUINTANA ROO, CP. 77517" }, "geometry": { "type": "Point", "coordinates": [ -86.87687, 21.19531 ] } },
{ "type": "Feature", "properties": { "Clues": "SLIMB000014", "Institución": "Servicios de Salud del Instituto Mexicano del Seguro Social para el Bienestar", "Sigla de la Institución": "IMSS-Bienestar", "Entidad": "Sinaloa", "Municipio": "Culiacán", "Siglas del tipo de unidad": "HG", "Tipo de Unidad": "Hospital General", "Unidad Médica": "Hospital General de Culiacán", "Cantidad de salas": 1, "Nivel de Atención": "Tercer Nivel", "Observaciones": "No aplica", "Latitud": 24.7942929, "Longitud": -107.3866778, "Direccion": "BOULEVARD PASEO DE TAMAZULA SIN NÚMERO, COLONIA LA LIMITA DE ITAJE, CULIACAN, SINALOA, CP. 80064" }, "geometry": { "type": "Point", "coordinates": [ -107.3866778, 24.7942929 ] } },
{ "type": "Feature", "properties": { "Clues": "CCIMB001526", "Institución": "Servicios de Salud del Instituto Mexicano del Seguro Social para el Bienestar", "Sigla de la Institución": "IMSS-Bienestar", "Entidad": "Campeche", "Municipio": "Campeche", "Siglas del tipo de unidad": "HGE", "Tipo de Unidad": "Hospital General de Especialidades", "Unidad Médica": "Hospital General de Especialidades \"Dr. Javier Buenfil Osorio\"", "Cantidad de salas": 1, "Nivel de Atención": "Tercer Nivel", "Observaciones": "No aplica", "Latitud": 19.815162, "Longitud": -90.523917, "Direccion": "CALLE LÁZARO CÁRDENAS  208, COLONIA LAS FLORES, CAMPECHE, CAMPECHE, CP. 24097" }, "geometry": { "type": "Point", "coordinates": [ -90.523917, 19.815162 ] } },
{ "type": "Feature", "properties": { "Clues": "BSIMB000672", "Institución": "Servicios de Salud del Instituto Mexicano del Seguro Social para el Bienestar", "Sigla de la Institución": "IMSS-Bienestar", "Entidad": "Baja California Sur", "Municipio": "La Paz", "Siglas del tipo de unidad": "HGE", "Tipo de Unidad": "Hospital General de Especialidades", "Unidad Médica": "Hospital General de Especialidades \"Juan María Salvatierra\"", "Cantidad de salas": 1, "Nivel de Atención": "Segundo Nivel", "Observaciones": "No aplica", "Latitud": 24.113297, "Longitud": -110.318457, "Direccion": "AVENIDA DE LOS DEPORTISTAS 5115, COLONIA 8 DE OCTUBRE II SECCION, LA PAZ, BAJA CALIFORNIA SUR, CP. 23085" }, "geometry": { "type": "Point", "coordinates": [ -110.318457, 24.113297 ] } },
{ "type": "Feature", "properties": { "Clues": "BCIMB000355", "Institución": "Servicios de Salud del Instituto Mexicano del Seguro Social para el Bienestar", "Sigla de la Institución": "IMSS-Bienestar", "Entidad": "Baja California", "Municipio": "Mexicali", "Siglas del tipo de unidad": "HG", "Tipo de Unidad": "Hospital General", "Unidad Médica": "Hospital General de Mexicali", "Cantidad de salas": 1, "Nivel de Atención": "Segundo Nivel", "Observaciones": "No aplica", "Latitud": 32.64480265, "Longitud": -115.4756079, "Direccion": "CALLE DEL HOSPITAL  SIN NÚMERO, COLONIA CENTRO CÍVICO Y, MEXICALI, BAJA CALIFORNIA, CP. 21000" }, "geometry": { "type": "Point", "coordinates": [ -115.4756079, 32.64480265 ] } },
{ "type": "Feature", "properties": { "Clues": "HGIMB002304", "Institución": "Servicios de Salud del Instituto Mexicano del Seguro Social para el Bienestar", "Sigla de la Institución": "IMSS-Bienestar", "Entidad": "Hidalgo", "Municipio": "Pachuca de Soto", "Siglas del tipo de unidad": "HG", "Tipo de Unidad": "Hospital General", "Unidad Médica": "Hospital General de Pachuca", "Cantidad de salas": 1, "Nivel de Atención": "Tercer Nivel", "Observaciones": "No aplica", "Latitud": 20.11376, "Longitud": -98.72286, "Direccion": "CARRETERA PACHUCA - TULANCINGO 101, COLONIA CIUDAD DE LOS NIÑOS, PACHUCA DE SOTO, HIDALGO, CP. 42070" }, "geometry": { "type": "Point", "coordinates": [ -98.72286, 20.11376 ] } },
{ "type": "Feature", "properties": { "Clues": "ZSIMB002481", "Institución": "Servicios de Salud del Instituto Mexicano del Seguro Social para el Bienestar", "Sigla de la Institución": "IMSS-Bienestar", "Entidad": "Zacatecas", "Municipio": "Zacatecas", "Siglas del tipo de unidad": "HG", "Tipo de Unidad": "Hospital General", "Unidad Médica": "Hospital General de Zacatecas \"Luz González Cosío\"", "Cantidad de salas": 1, "Nivel de Atención": "Segundo Nivel", "Observaciones": "No aplica", "Latitud": 22.778268, "Longitud": -102.619871, "Direccion": "CALLE CIRCUITO 410, FRACCIONAMIENTO CIUDAD GOBIERNO, ZACATECAS, ZACATECAS, CP. 98160" }, "geometry": { "type": "Point", "coordinates": [ -102.619871, 22.778268 ] } },
{ "type": "Feature", "properties": { "Clues": "SRIMB002203", "Institución": "Servicios de Salud del Instituto Mexicano del Seguro Social para el Bienestar", "Sigla de la Institución": "IMSS-Bienestar", "Entidad": "Sonora", "Municipio": "Hermosillo", "Siglas del tipo de unidad": "HG", "Tipo de Unidad": "Hospital General", "Unidad Médica": "Hospital General del Estado de Sonora", "Cantidad de salas": 1, "Nivel de Atención": "Tercer Nivel", "Observaciones": "No aplica", "Latitud": 29.08175, "Longitud": -111.003861, "Direccion": "BOULEVARD LUIS DONALDO COLOSIO MURRIETA SIN NÚMERO, COLONIA LAS QUINTAS, HERMOSILLO, SONORA, CP. 83240" }, "geometry": { "type": "Point", "coordinates": [ -111.003861, 29.08175 ] } },
{ "type": "Feature", "properties": { "Clues": "TSIMB002865", "Institución": "Servicios de Salud del Instituto Mexicano del Seguro Social para el Bienestar", "Sigla de la Institución": "IMSS-Bienestar", "Entidad": "Tamaulipas", "Municipio": "Victoria", "Siglas del tipo de unidad": "HRAE", "Tipo de Unidad": "Hospital Regional de Alta Especialidad", "Unidad Médica": "Hospital Regional de Alta Especialidad \"Bicentenario 2010\"", "Cantidad de salas": 1, "Nivel de Atención": "Tercer Nivel", "Observaciones": "No aplica", "Latitud": 23.761924, "Longitud": -99.107735, "Direccion": "LIBRAMIENTO GUADALUPE VICTORIA SIN NÚMERO, COLONIA AREA DE PAJARITOS, VICTORIA, TAMAULIPAS, CP. 87087" }, "geometry": { "type": "Point", "coordinates": [ -99.107735, 23.761924 ] } },
{ "type": "Feature", "properties": { "Clues": "CSIMB003506", "Institución": "Servicios de Salud del Instituto Mexicano del Seguro Social para el Bienestar", "Sigla de la Institución": "IMSS-Bienestar", "Entidad": "Chiapas", "Municipio": "Tapachula", "Siglas del tipo de unidad": "HRAE", "Tipo de Unidad": "Hospital Regional de Alta Especialidad", "Unidad Médica": "Hospital Regional de Alta Especialidad \"Ciudad Salud\"", "Cantidad de salas": 1, "Nivel de Atención": "Tercer Nivel", "Observaciones": "No aplica", "Latitud": 14.80958302, "Longitud": -92.34737813, "Direccion": "CARRETERA TAPACHULA - PUERTO MADERO  SIN NÚMERO, COLONIA LOS TOROS, TAPACHULA, CHIAPAS, CP. 30830" }, "geometry": { "type": "Point", "coordinates": [ -92.34737813, 14.80958302 ] } },
{ "type": "Feature", "properties": { "Clues": "TCIMB000786", "Institución": "Servicios de Salud del Instituto Mexicano del Seguro Social para el Bienestar", "Sigla de la Institución": "IMSS-Bienestar", "Entidad": "Tabasco", "Municipio": "Centro", "Siglas del tipo de unidad": "HRAE", "Tipo de Unidad": "Hospital Regional de Alta Especialidad", "Unidad Médica": "Hospital Regional de Alta Especialidad \"Dr. Gustavo A. Rovirosa Pérez\"", "Cantidad de salas": 1, "Nivel de Atención": "Segundo Nivel", "Observaciones": "No aplica", "Latitud": 18.0124021, "Longitud": -92.9242407, "Direccion": "CALLE 3 SIN NÚMERO, COLONIA EL RECREO, CENTRO, TABASCO, CP. 86020" }, "geometry": { "type": "Point", "coordinates": [ -92.9242407, 18.0124021 ] } },
{ "type": "Feature", "properties": { "Clues": "TCIMB000791", "Institución": "Servicios de Salud del Instituto Mexicano del Seguro Social para el Bienestar", "Sigla de la Institución": "IMSS-Bienestar", "Entidad": "Tabasco", "Municipio": "Centro", "Siglas del tipo de unidad": "HRAE", "Tipo de Unidad": "Hospital Regional de Alta Especialidad", "Unidad Médica": "Hospital Regional de Alta Especialidad \"Dr. Juan Graham Casasús\"", "Cantidad de salas": 1, "Nivel de Atención": "Tercer Nivel", "Observaciones": "No aplica", "Latitud": 17.97761332, "Longitud": -92.9860788, "Direccion": "CARRETERA VILLAHERMOSA-LA ISLA KM 1.5 SIN NÚMERO, COLONIA MIGUEL HIDALGO, CENTRO, TABASCO, CP. 86127" }, "geometry": { "type": "Point", "coordinates": [ -92.9860788, 17.97761332 ] } },
{ "type": "Feature", "properties": { "Clues": "YNIMB000012", "Institución": "Servicios de Salud del Instituto Mexicano del Seguro Social para el Bienestar", "Sigla de la Institución": "IMSS-Bienestar", "Entidad": "Yucatán", "Municipio": "Mérida", "Siglas del tipo de unidad": "HRAE", "Tipo de Unidad": "Hospital Regional de Alta Especialidad", "Unidad Médica": "Hospital Regional de Alta Especialidad de la Península de Yucatán", "Cantidad de salas": 1, "Nivel de Atención": "Tercer Nivel", "Observaciones": "No aplica", "Latitud": 21.0193421, "Longitud": -89.5819034, "Direccion": "CALLE 7 433, FRACCIONAMIENTO ALTABRISA, MERIDA, YUCATAN, CP. 97130" }, "geometry": { "type": "Point", "coordinates": [ -89.5819034, 21.0193421 ] } },
{ "type": "Feature", "properties": { "Clues": "GTIMB000015", "Institución": "Servicios de Salud del Instituto Mexicano del Seguro Social para el Bienestar", "Sigla de la Institución": "IMSS-Bienestar", "Entidad": "Guanajuato", "Municipio": "León", "Siglas del tipo de unidad": "HRAE", "Tipo de Unidad": "Hospital Regional de Alta Especialidad", "Unidad Médica": "Hospital Regional de Alta Especialidad del Bajío", "Cantidad de salas": 1, "Nivel de Atención": "Tercer Nivel", "Observaciones": "No aplica", "Latitud": 21.0613651, "Longitud": -101.5767015, "Direccion": "BOULEVARD MILENIO 130, COLONIA SAN CARLOS LA RONCHA, LEON, GUANAJUATO, CP. 37544" }, "geometry": { "type": "Point", "coordinates": [ -101.5767015, 21.0613651 ] } },
{ "type": "Feature", "properties": { "Clues": "TCIMB000774", "Institución": "Servicios de Salud del Instituto Mexicano del Seguro Social para el Bienestar", "Sigla de la Institución": "IMSS-Bienestar", "Entidad": "Tabasco", "Municipio": "Centro", "Siglas del tipo de unidad": "HRAE", "Tipo de Unidad": "Hospital Regional de Alta Especialidad", "Unidad Médica": "Hospital Regional de Alta Especialidad del Niño \"Dr. Rodolfo Nieto Padrón\"", "Cantidad de salas": 1, "Nivel de Atención": "Tercer Nivel", "Observaciones": "No aplica", "Latitud": 17.97715, "Longitud": -92.95287, "Direccion": "AVENIDA CORONEL GREGORIO MENDEZ MAGAÑA 2820, COLONIA ATASTA DE SERRA, CENTRO, TABASCO, CP. 86100" }, "geometry": { "type": "Point", "coordinates": [ -92.95287, 17.97715 ] } },
{ "type": "Feature", "properties": { "Clues": "VZIMB003766", "Institución": "Servicios de Salud del Instituto Mexicano del Seguro Social para el Bienestar", "Sigla de la Institución": "IMSS-Bienestar", "Entidad": "Veracruz", "Municipio": "Poza Rica de Hidalgo", "Siglas del tipo de unidad": "HR", "Tipo de Unidad": "Hospital Regional", "Unidad Médica": "Hospital Regional de Poza Rica", "Cantidad de salas": 1, "Nivel de Atención": "Segundo Nivel", "Observaciones": "No aplica", "Latitud": 20.55418, "Longitud": -97.43901, "Direccion": "CALLE DE LAS FLORES SIN NÚMERO, COLONIA LAS VEGAS, POZA RICA DE HIDALGO, VERACRUZ DE IGNACIO DE LA LLAVE, CP. 93210" }, "geometry": { "type": "Point", "coordinates": [ -97.43901, 20.55418 ] } },
{ "type": "Feature", "properties": { "Clues": "VZIMB002342", "Institución": "Servicios de Salud del Instituto Mexicano del Seguro Social para el Bienestar", "Sigla de la Institución": "IMSS-Bienestar", "Entidad": "Veracruz", "Municipio": "Xalapa", "Siglas del tipo de unidad": "HR", "Tipo de Unidad": "Hospital Regional", "Unidad Médica": "Hospital Regional de Xalapa \"Dr. Luis F. Nachón\"", "Cantidad de salas": 1, "Nivel de Atención": "Tercer Nivel", "Observaciones": "No aplica", "Latitud": 19.525544, "Longitud": -96.921021, "Direccion": "CALLE PEDRO RENDON 1, COLONIA CENTRO, XALAPA, VERACRUZ DE IGNACIO DE LA LLAVE, CP. 91000" }, "geometry": { "type": "Point", "coordinates": [ -96.921021, 19.525544 ] } },
{ "type": "Feature", "properties": { "Clues": "PENDIENTE", "Institución": "Servicios de Salud del Instituto Mexicano del Seguro Social para el Bienestar", "Sigla de la Institución": "IMSS-Bienestar", "Entidad": "Tlaxcala", "Municipio": null, "Siglas del tipo de unidad": "UNEME", "Tipo de Unidad": "Unidad de Especialidades Médicas", "Unidad Médica": "Unidad de Especialidades Médicas de Hemodinamia", "Cantidad de salas": 1, "Nivel de Atención": "Segundo Nivel", "Observaciones": "No aplica", "Latitud": 19.3685185, "Longitud": -98.2174945, "Direccion": "PENDIENTE" }, "geometry": { "type": "Point", "coordinates": [ -98.2174945, 19.3685185 ] } },
{ "type": "Feature", "properties": { "Clues": "ASSSA001331", "Institución": "Servicios Estatales de Salud", "Sigla de la Institución": "SESA", "Entidad": "Aguascalientes", "Municipio": "Aguascalientes", "Siglas del tipo de unidad": "H", "Tipo de Unidad": "Hospital", "Unidad Médica": "Centenario Hospital Miguel Hidalgo", "Cantidad de salas": 1, "Nivel de Atención": "Tercer Nivel", "Observaciones": "No aplica", "Latitud": 21.8947, "Longitud": -102.2831, "Direccion": "AVENIDA GOMEZ MORIN SIN NUMERO, BARRIO LA ESTACIÓN, AGUASCALIENTES, AGUASCALIENTES, CP. 20259" }, "geometry": { "type": "Point", "coordinates": [ -102.2831, 21.8947 ] } },
{ "type": "Feature", "properties": { "Clues": "CLHUN000015", "Institución": "Servicios Médicos Universitarios", "Sigla de la Institución": "SMU", "Entidad": "Coahuila", "Municipio": "Saltillo", "Siglas del tipo de unidad": "HU", "Tipo de Unidad": "Hospital Universitario", "Unidad Médica": "Hospital Universitario de Saltillo", "Cantidad de salas": 1, "Nivel de Atención": "Segundo Nivel", "Observaciones": "No aplica", "Latitud": 25.427755, "Longitud": -101.014095, "Direccion": "CALLE FRANCISCO I. MADERO SIN NUMERO, COLONIA SALTILLO ZONA CENTRO, SALTILLO, COAHUILA DE ZARAGOZA, CP. 25000" }, "geometry": { "type": "Point", "coordinates": [ -101.014095, 25.427755 ] } },
{ "type": "Feature", "properties": { "Clues": "NLHUN000014", "Institución": "Servicios Médicos Universitarios", "Sigla de la Institución": "SMU", "Entidad": "Nuevo León", "Municipio": "Monterrey", "Siglas del tipo de unidad": "HU", "Tipo de Unidad": "Hospital Universitario", "Unidad Médica": "Hospital Universitario Dr. José Eleuterio González", "Cantidad de salas": 1, "Nivel de Atención": "tercer nivel", "Observaciones": "No aplica", "Latitud": 25.6893674, "Longitud": -100.3512226, "Direccion": "AVENIDA FRANCISCO I. MADERO Y GONZALITOS SIN NUMERO, COLONIA MITRAS CENTRO, MONTERREY, NUEVO LEON, CP. 64450" }, "geometry": { "type": "Point", "coordinates": [ -100.3512226, 25.6893674 ] } },
{ "type": "Feature", "properties": { "Clues": "NLSME000012", "Institución": "Sindicato Nacional de Trabajadores de la Educación", "Sigla de la Institución": "SNTE", "Entidad": "Nuevo León", "Municipio": "Monterrey", "Siglas del tipo de unidad": "H", "Tipo de Unidad": "Hospital", "Unidad Médica": "Hospital de los Maestros SNTE Sección 50", "Cantidad de salas": 1, "Nivel de Atención": "Segundo Nivel", "Observaciones": "No aplica", "Latitud": 25.7096198, "Longitud": -100.3480079, "Direccion": "CALLE TUXPAN 400, COLONIA MITRAS NORTE, MONTERREY, NUEVO LEON, CP. 64320" }, "geometry": { "type": "Point", "coordinates": [ -100.3480079, 25.7096198 ] } }
]
}
